{"type":"FeatureCollection","features":[{"type": "Feature", "id": "1GDqMOAoZHg9ZGvW50ibBKh6Cj0=", "properties": {"ref": "eff0b2514ef046fdaee898668add4e37", "@spider": "farmacias_de_descuento_unión_mex_dpa", "addr:full": "Calle Francisco I. Madero S/N, Col. Centro, Villa Aldama, Comalcalco, Tabasco, C.P. 86660", "addr:street": "Calle Francisco I. Madero S/N", "addr:city": "Villa Aldama", "addr:state": "Tabasco", "phones": {"Store": ["93 3335 2177"]}, "email": {"Customer Service": []}, "website": "https://www.farmaciasunion.com/sucursales.html", "operatingHours": {"Store": []}, "chain_id": "22318", "chain_name": "FARMACIAS DE DESCUENTO UNIÓN"}, "geometry": {"type": "Point", "coordinates": [-93.218223, 18.278098]}},
{"type": "Feature", "id": "YZPA1aNEwJYmKWlBx-Hng3OYR4Q=", "properties": {"ref": "0851a30bdbb745599fa0c8c2d577ec72", "@spider": "farmacias_de_descuento_unión_mex_dpa", "addr:full": "Av. Niños Heroes, Col. Centro, Chichicapan, Comalcalco, Tabasco, C.P. 86670", "addr:street": "Av. Niños Heroes", "addr:city": "Chichicapan", "addr:state": "Tabasco", "phones": {"Store": ["93 3337 3471"]}, "email": {"Customer Service": []}, "website": "https://www.farmaciasunion.com/sucursales.html", "operatingHours": {"Store": []}, "chain_id": "22318", "chain_name": "FARMACIAS DE DESCUENTO UNIÓN"}, "geometry": {"type": "Point", "coordinates": [-93.182561, 18.262515]}},
{"type": "Feature", "id": "A15orfYYf5T_qoMkDwstNFqKteU=", "properties": {"ref": "8ab07de13e31417a9d5623a97c7b5f44", "@spider": "farmacias_de_descuento_unión_mex_dpa", "addr:full": "Boulevard Leandro Rovirosa Wade 100 Local 1, Col. Centro, Comalcalco, Comalcalco, Tabasco, C.P. 86300", "addr:street": "Boulevard Leandro Rovirosa Wade 100 Local 1", "addr:city": "Comalcalco", "addr:state": "Tabasco", "phones": {"Store": ["93 3334 4061"]}, "email": {"Customer Service": []}, "website": "https://www.farmaciasunion.com/sucursales.html", "operatingHours": {"Store": []}, "chain_id": "22318", "chain_name": "FARMACIAS DE DESCUENTO UNIÓN"}, "geometry": {"type": "Point", "coordinates": [-93.227193, 18.263126]}},
{"type": "Feature", "id": "brkZ9oAJj9Bms2j_QAUL5SU-HaA=", "properties": {"ref": "6a543880bb294f20b720a840748217c2", "@spider": "farmacias_de_descuento_unión_mex_dpa", "addr:full": "Juárez 402, Col. Centro, Comalcalco, Comalcalco, Tabasco, C.P. 86400", "addr:street": "Juárez 402", "addr:city": "Comalcalco", "addr:state": "Tabasco", "phones": {"Store": ["93 3334 6926"]}, "email": {"Customer Service": []}, "website": "https://www.farmaciasunion.com/sucursales.html", "operatingHours": {"Store": []}, "chain_id": "22318", "chain_name": "FARMACIAS DE DESCUENTO UNIÓN"}, "geometry": {"type": "Point", "coordinates": [-93.223137, 18.262445]}},
{"type": "Feature", "id": "76cVsA0U8Sv-wipzUYtLGRo0aGk=", "properties": {"ref": "1ba993a0952f46668c647a4fd391cdfd", "@spider": "farmacias_de_descuento_unión_mex_dpa", "addr:full": "Gregorio Méndez 201, Col. Centro, Comalcalco, Comalcalco, Tabasco, C.P. 86400", "addr:street": "Gregorio Méndez 201", "addr:city": "Comalcalco", "addr:state": "Tabasco", "phones": {"Store": ["93 3334 2573"]}, "email": {"Customer Service": []}, "website": "https://www.farmaciasunion.com/sucursales.html", "operatingHours": {"Store": []}, "chain_id": "22318", "chain_name": "FARMACIAS DE DESCUENTO UNIÓN"}, "geometry": {"type": "Point", "coordinates": [-93.223389, 18.263411]}},
{"type": "Feature", "id": "l2Mqnel3OUL_A4Mt6ncO9Fs0U8M=", "properties": {"ref": "be6056bffe954ea1b90687c5fb3b1b0d", "@spider": "farmacias_de_descuento_unión_mex_dpa", "addr:full": "Calle Nicolás Bravo S/N, Col. Vicente Guerrero, Comalcalco, Comalcalco, Tabasco, C.P. 86350", "addr:street": "Calle Nicolás Bravo S/N", "addr:city": "Comalcalco", "addr:state": "Tabasco", "phones": {"Store": ["93 3337 0926"]}, "email": {"Customer Service": []}, "website": "https://www.farmaciasunion.com/sucursales.html", "operatingHours": {"Store": []}, "chain_id": "22318", "chain_name": "FARMACIAS DE DESCUENTO UNIÓN"}, "geometry": {"type": "Point", "coordinates": [-93.221638, 18.261851]}},
{"type": "Feature", "id": "hcx4fCnkCOxnishpmVEgwTWWaDE=", "properties": {"ref": "b07c29f194d941faab7f22183558ff2c", "@spider": "farmacias_de_descuento_unión_mex_dpa", "addr:full": "Ignacio López Rayón 401, Col. Santa Amalia, Comalcalco, Comalcalco, Tabasco, C.P. 86370", "addr:street": "Ignacio López Rayón 401", "addr:city": "Comalcalco", "addr:state": "Tabasco", "phones": {"Store": ["93 3334 1043"]}, "email": {"Customer Service": []}, "website": "https://www.farmaciasunion.com/sucursales.html", "operatingHours": {"Store": []}, "chain_id": "22318", "chain_name": "FARMACIAS DE DESCUENTO UNIÓN"}, "geometry": {"type": "Point", "coordinates": [-93.221671, 18.255655]}},
{"type": "Feature", "id": "Viv5tNn31O2ZAF4fcfxpn3UVW7c=", "properties": {"ref": "f90d8ebf138545158c7786374b3cd303", "@spider": "farmacias_de_descuento_unión_mex_dpa", "addr:full": "Boulevard Adolfo López Mateos 96 Local A y B, Col. Xochimilco, Comalcalco, Comalcalco, Tabasco, C.P. 86369", "addr:street": "Boulevard Adolfo López Mateos 96 Local A y B", "addr:city": "Comalcalco", "addr:state": "Tabasco", "phones": {"Store": ["93 3334 1562"]}, "email": {"Customer Service": []}, "website": "https://www.farmaciasunion.com/sucursales.html", "operatingHours": {"Store": []}, "chain_id": "22318", "chain_name": "FARMACIAS DE DESCUENTO UNIÓN"}, "geometry": {"type": "Point", "coordinates": [-93.219189, 18.262354]}},
{"type": "Feature", "id": "T8yBzGMKejI677aAlaPGm_fKPAs=", "properties": {"ref": "2546a3da329a42afbeafa591f3423195", "@spider": "farmacias_de_descuento_unión_mex_dpa", "addr:full": "Ignacio Zaragoza 724, Col. Centro, Comalcalco, Comalcalco, Tabasco, C.P. 86300", "addr:street": "Ignacio Zaragoza 724", "addr:city": "Comalcalco", "addr:state": "Tabasco", "phones": {"Store": ["93 3334 4531"]}, "email": {"Customer Service": []}, "website": "https://www.farmaciasunion.com/sucursales.html", "operatingHours": {"Store": []}, "chain_id": "22318", "chain_name": "FARMACIAS DE DESCUENTO UNIÓN"}, "geometry": {"type": "Point", "coordinates": [-93.222376, 18.25855]}},
{"type": "Feature", "id": "_qdFJCe-jTUdYfwBNI430mY19EQ=", "properties": {"ref": "e8c6d5ffe6974dd886fea9c7d10657c2", "@spider": "farmacias_de_descuento_unión_mex_dpa", "addr:full": "Periférico 44, Col. Centro, Cunduacán, Cunduacán, Tabasco, C.P. 86690", "addr:street": "Periférico 44", "addr:city": "Cunduacán", "addr:state": "Tabasco", "phones": {"Store": ["91 4336 2129"]}, "email": {"Customer Service": []}, "website": "https://www.farmaciasunion.com/sucursales.html", "operatingHours": {"Store": []}, "chain_id": "22318", "chain_name": "FARMACIAS DE DESCUENTO UNIÓN"}, "geometry": {"type": "Point", "coordinates": [-93.17433, 18.068983]}},
{"type": "Feature", "id": "junEWhj4PMh-OxlrlbgWFSjUUTo=", "properties": {"ref": "c15201301ce44e11a50e598aa6201815", "@spider": "farmacias_de_descuento_unión_mex_dpa", "addr:full": "Av. Profesor Rosendo Taracena S/N, Col. Centro, Cunduacán, Cunduacán, Tabasco, C.P. 86690", "addr:street": "Av. Profesor Rosendo Taracena S/N", "addr:city": "Cunduacán", "addr:state": "Tabasco", "phones": {"Store": ["91 4336 0246"]}, "email": {"Customer Service": []}, "website": "https://www.farmaciasunion.com/sucursales.html", "operatingHours": {"Store": []}, "chain_id": "22318", "chain_name": "FARMACIAS DE DESCUENTO UNIÓN"}, "geometry": {"type": "Point", "coordinates": [-93.173126, 18.066651]}},
{"type": "Feature", "id": "wN8KC7Pxr0dzo0JTzhGE0iCZzIo=", "properties": {"ref": "7f3cabde3beb4cdc9ea6cb796bfa767e", "@spider": "farmacias_de_descuento_unión_mex_dpa", "addr:full": "Miguel Hidalgo 78 , Col. Villa Tecolutilla, Tecolutilla, Comalcalco, Tabasco, C.P. 86640", "addr:street": "Miguel Hidalgo 78 ", "addr:city": "Tecolutilla", "addr:state": "Tabasco", "phones": {"Store": ["93 3335 0103"]}, "email": {"Customer Service": []}, "website": "https://www.farmaciasunion.com/sucursales.html", "operatingHours": {"Store": []}, "chain_id": "22318", "chain_name": "FARMACIAS DE DESCUENTO UNIÓN"}, "geometry": {"type": "Point", "coordinates": [-93.332005, 18.282427]}},
{"type": "Feature", "id": "LeRBJdCDmiOtywUgHllAajdDOcE=", "properties": {"ref": "031b97c6d5634c85b24da7d8137bc559", "@spider": "farmacias_de_descuento_unión_mex_dpa", "addr:full": "Miguel Hidalgo S/N, Col. Centro, Tecolutilla, Comalcalco, Tabasco, C.P. 86640", "addr:street": "Miguel Hidalgo S/N", "addr:city": "Tecolutilla", "addr:state": "Tabasco", "phones": {"Store": ["93 3335 0108"]}, "email": {"Customer Service": []}, "website": "https://www.farmaciasunion.com/sucursales.html", "operatingHours": {"Store": []}, "chain_id": "22318", "chain_name": "FARMACIAS DE DESCUENTO UNIÓN"}, "geometry": {"type": "Point", "coordinates": [-93.334412, 18.282579]}},
{"type": "Feature", "id": "3WQ9w6aNU_R9f86ThWfg4ZmHdP0=", "properties": {"ref": "db148380741f42f6bf0b70940e960623", "@spider": "farmacias_de_descuento_unión_mex_dpa", "addr:full": "Carretera Comalcalco-Cárdenas Km 16 S/N, Col. Sin Referencia, Tulipan, Cunduacán, Tabasco, C.P. 86680", "addr:street": "Carretera Comalcalco-Cárdenas Km 16 S/N", "addr:city": "Tulipan", "addr:state": "Tabasco", "phones": {"Store": ["91 4103 0432"]}, "email": {"Customer Service": []}, "website": "https://www.farmaciasunion.com/sucursales.html", "operatingHours": {"Store": []}, "chain_id": "22318", "chain_name": "FARMACIAS DE DESCUENTO UNIÓN"}, "geometry": {"type": "Point", "coordinates": [-93.298852, 18.115758]}},
{"type": "Feature", "id": "Q3n-tPw6nf25oNGfESr3DFqFq9E=", "properties": {"ref": "7e3471aed65547e6aa85b296529bc9bf", "@spider": "farmacias_de_descuento_unión_mex_dpa", "addr:full": "Av. Gobernadores 441, Col. Santa Ana, Campeche, Campeche, Campeche, C.P. 24050", "addr:street": "Av. Gobernadores 441", "addr:city": "Campeche", "addr:state": "Campeche", "phones": {"Store": ["98 1811 0159"]}, "email": {"Customer Service": []}, "website": "https://www.farmaciasunion.com/sucursales.html", "operatingHours": {"Store": []}, "chain_id": "22318", "chain_name": "FARMACIAS DE DESCUENTO UNIÓN"}, "geometry": {"type": "Point", "coordinates": [-90.525092, 19.843017]}},
{"type": "Feature", "id": "QJMCnGMlLHxQEXxLMVHTgEshTiE=", "properties": {"ref": "0a75b869babd42e6b6f6b97208af94a3", "@spider": "farmacias_de_descuento_unión_mex_dpa", "addr:full": "Av. Lazaro Cárdenas Predio 7, Local 6, Col. Lomas de Las Flores II, Campeche, Campeche, Campeche, C.P. 24060", "addr:street": "Av. Lazaro Cárdenas Predio 7", "addr:city": "Col. Lomas de Las Flores II", "addr:state": "Campeche", "phones": {"Store": ["98 1823 4170"]}, "email": {"Customer Service": []}, "website": "https://www.farmaciasunion.com/sucursales.html", "operatingHours": {"Store": []}, "chain_id": "22318", "chain_name": "FARMACIAS DE DESCUENTO UNIÓN"}, "geometry": {"type": "Point", "coordinates": [-90.523251, 19.815057]}},
{"type": "Feature", "id": "M0sPDmKhv-MTGiBZI7XNDUjPhHI=", "properties": {"ref": "223eb230e57d4aa4b416296c4d0a29eb", "@spider": "farmacias_de_descuento_unión_mex_dpa", "addr:full": "Adolfo López Mateos 257, Col. Montecristo, Campeche, Campeche, Campeche, C.P. 24040", "addr:street": "Adolfo López Mateos 257", "addr:city": "Campeche", "addr:state": "Campeche", "phones": {"Store": ["98 1128 1113"]}, "email": {"Customer Service": []}, "website": "https://www.farmaciasunion.com/sucursales.html", "operatingHours": {"Store": []}, "chain_id": "22318", "chain_name": "FARMACIAS DE DESCUENTO UNIÓN"}, "geometry": {"type": "Point", "coordinates": [-90.548713, 19.832621]}},
{"type": "Feature", "id": "GfEggvWwEpxDSPNJHQc2YtymURQ=", "properties": {"ref": "607a667d37e24eb8aa44a0a1aa33fde1", "@spider": "farmacias_de_descuento_unión_mex_dpa", "addr:full": "Av. Luis Donaldo Colosio, Col. Venustiano Carranza, Champoton, Champoton, Campeche, C.P. 24400", "addr:street": "Av. Luis Donaldo Colosio", "addr:city": "Champoton", "addr:state": "Campeche", "phones": {"Store": ["98 2828 3009"]}, "email": {"Customer Service": []}, "website": "https://www.farmaciasunion.com/sucursales.html", "operatingHours": {"Store": []}, "chain_id": "22318", "chain_name": "FARMACIAS DE DESCUENTO UNIÓN"}, "geometry": {"type": "Point", "coordinates": [-90.725373, 19.342668]}},
{"type": "Feature", "id": "ac3AaFf1UlEtM5FlY39omMtkdLU=", "properties": {"ref": "bdf0781642b7441e8c472ea352569c6b", "@spider": "farmacias_de_descuento_unión_mex_dpa", "addr:full": "Calle 35 # 66-A , Col. Centro, Ciudad del Carmen, Ciudad del Carmen, Campeche, C.P. 24100", "addr:street": "Calle 35 # 66-A ", "addr:city": "Ciudad del Carmen", "addr:state": "Campeche", "phones": {"Store": ["93 8286 1599"]}, "email": {"Customer Service": []}, "website": "https://www.farmaciasunion.com/sucursales.html", "operatingHours": {"Store": []}, "chain_id": "22318", "chain_name": "FARMACIAS DE DESCUENTO UNIÓN"}, "geometry": {"type": "Point", "coordinates": [-91.831991, 18.642591]}},
{"type": "Feature", "id": "aowOkrcAZUSfZEf5HG5qELt-6QQ=", "properties": {"ref": "769938dce8394f119902ddba9fd45ec0", "@spider": "farmacias_de_descuento_unión_mex_dpa", "addr:full": "Calle 24 43, Col. Centro, Ciudad del Carmen, Ciudad del Carmen, Campeche, C.P. 24100", "addr:street": "Calle 24 43", "addr:city": "Ciudad del Carmen", "addr:state": "Campeche", "phones": {"Store": ["93 8384 2126"]}, "email": {"Customer Service": []}, "website": "https://www.farmaciasunion.com/sucursales.html", "operatingHours": {"Store": []}, "chain_id": "22318", "chain_name": "FARMACIAS DE DESCUENTO UNIÓN"}, "geometry": {"type": "Point", "coordinates": [-91.834166, 18.636305]}},
{"type": "Feature", "id": "wHUVgRCGrr56JeBNBt9gwzguL3E=", "properties": {"ref": "3624a1391b8a4807a7873d17a162fdd6", "@spider": "farmacias_de_descuento_unión_mex_dpa", "addr:full": "Av. Periferica 34, Col. Francisco I. Madero, Ciudad del Carmen, Ciudad del Carmen, Campeche, C.P. 24180", "addr:street": "Av. Periferica 34", "addr:city": "Ciudad del Carmen", "addr:state": "Campeche", "phones": {"Store": ["93 8111 2322"]}, "email": {"Customer Service": []}, "website": "https://www.farmaciasunion.com/sucursales.html", "operatingHours": {"Store": []}, "chain_id": "22318", "chain_name": "FARMACIAS DE DESCUENTO UNIÓN"}, "geometry": {"type": "Point", "coordinates": [-91.811023, 18.64565]}},
{"type": "Feature", "id": "OoGa9EI269UT1B5dgme076vB4i8=", "properties": {"ref": "8293117634b04c9d96723afb32c4841b", "@spider": "farmacias_de_descuento_unión_mex_dpa", "addr:full": "Av. Azucena 3, Col. Fracc. Puente de La Unidad, Ciudad del Carmen, Ciudad del Carmen, Campeche, C.P. 24154", "addr:street": "Av. Azucena 3", "addr:city": "Ciudad del Carmen", "addr:state": "Campeche", "phones": {"Store": ["93 8381 8805"]}, "email": {"Customer Service": []}, "website": "https://www.farmaciasunion.com/sucursales.html", "operatingHours": {"Store": []}, "chain_id": "22318", "chain_name": "FARMACIAS DE DESCUENTO UNIÓN"}, "geometry": {"type": "Point", "coordinates": [-91.797069, 18.659339]}},
{"type": "Feature", "id": "3vhpB6v0N_I0VhrX4Lr0s5saOOo=", "properties": {"ref": "6d492c1ff9724ca2b12b6667ec5ae1f0", "@spider": "farmacias_de_descuento_unión_mex_dpa", "addr:full": "Av. Belisario Dominguez 117 , Col. Compositores, Ciudad del Carmen, Ciudad del Carmen, Campeche, C.P. 24154", "addr:street": "Av. Belisario Dominguez 117 ", "addr:city": "Ciudad del Carmen", "addr:state": "Campeche", "phones": {"Store": ["93 8118 2346"]}, "email": {"Customer Service": []}, "website": "https://www.farmaciasunion.com/sucursales.html", "operatingHours": {"Store": []}, "chain_id": "22318", "chain_name": "FARMACIAS DE DESCUENTO UNIÓN"}, "geometry": {"type": "Point", "coordinates": [-91.788581, 18.647463]}},
{"type": "Feature", "id": "0hQKduKdIRbrgh3MgRjN4HOvy3A=", "properties": {"ref": "0773520b860f439f8fe7701f454dd11d", "@spider": "farmacias_de_descuento_unión_mex_dpa", "addr:full": "Av. Hector Pérez Martínez S/N Int. 27, Col. Centro, Escarcega, Escarcega, Campeche, C.P. 24350", "addr:street": "Av. Hector Pérez Martínez S/N Int. 27", "addr:city": "Escarcega", "addr:state": "Campeche", "phones": {"Store": ["98 2824 0686"]}, "email": {"Customer Service": []}, "website": "https://www.farmaciasunion.com/sucursales.html", "operatingHours": {"Store": []}, "chain_id": "22318", "chain_name": "FARMACIAS DE DESCUENTO UNIÓN"}, "geometry": {"type": "Point", "coordinates": [-90.731553, 18.605328]}},
{"type": "Feature", "id": "J84R7ZeQE6ymwDikTXQrs-GfOpI=", "properties": {"ref": "429443cbe08440e0964a8c65daa3691d", "@spider": "farmacias_de_descuento_unión_mex_dpa", "addr:full": "Reforma Sur 218, Col. Centro, Comalcalco, Comalcalco, Tabasco, C.P. 86300", "addr:street": "Reforma Sur 218", "addr:city": "Comalcalco", "addr:state": "Tabasco", "phones": {"Store": ["93 3334 0063"]}, "email": {"Customer Service": []}, "website": "https://www.farmaciasunion.com/sucursales.html", "operatingHours": {"Store": []}, "chain_id": "22318", "chain_name": "FARMACIAS DE DESCUENTO UNIÓN"}, "geometry": {"type": "Point", "coordinates": [-93.222361, 18.263842]}},
{"type": "Feature", "id": "fbX0JrELXMMyirB2ltBcBwKk5Zg=", "properties": {"ref": "1117563a7ecd42aa8c8dc3877a872aae", "@spider": "farmacias_de_descuento_unión_mex_dpa", "addr:full": "Adolfo López Mateos S/N, Col. Solidaridad Nacional Ac, Comalcalco, Comalcalco, Tabasco, C.P. 86340", "addr:street": "Adolfo López Mateos S/N", "addr:city": "Comalcalco", "addr:state": "Tabasco", "phones": {"Store": ["93 3334 1603"]}, "email": {"Customer Service": []}, "website": "https://www.farmaciasunion.com/sucursales.html", "operatingHours": {"Store": []}, "chain_id": "22318", "chain_name": "FARMACIAS DE DESCUENTO UNIÓN"}, "geometry": {"type": "Point", "coordinates": [-93.219095, 18.272372]}},
{"type": "Feature", "id": "pRP0V9hjW_xsS988NUXU_vt8HM8=", "properties": {"ref": "128f4a9c0a104315adf7e551b42ff53c", "@spider": "farmacias_de_descuento_unión_mex_dpa", "addr:full": "Reforma Norte y Esq. Malinche S/N, Col. San Miguel, Comalcalco, Comalcalco, Tabasco, C.P. 86300", "addr:street": "Reforma Norte y Esq. Malinche S/N", "addr:city": "Comalcalco", "addr:state": "Tabasco", "phones": {"Store": ["93 3334 9287"]}, "email": {"Customer Service": []}, "website": "https://www.farmaciasunion.com/sucursales.html", "operatingHours": {"Store": []}, "chain_id": "22318", "chain_name": "FARMACIAS DE DESCUENTO UNIÓN"}, "geometry": {"type": "Point", "coordinates": [-93.223395, 18.269758]}},
{"type": "Feature", "id": "gB5uod3FL2sZXUmNCsUMd9k9Kdk=", "properties": {"ref": "949fe9dd3004482d9b60e7a02fb0e06d", "@spider": "farmacias_de_descuento_unión_mex_dpa", "addr:full": "José María Pino Suárez 620, Col. Centro, Frontera, Centla, Tabasco, C.P. 86751", "addr:street": "José María Pino Suárez 620", "addr:city": "Frontera", "addr:state": "Tabasco", "phones": {"Store": ["91 3332 0400"]}, "email": {"Customer Service": []}, "website": "https://www.farmaciasunion.com/sucursales.html", "operatingHours": {"Store": []}, "chain_id": "22318", "chain_name": "FARMACIAS DE DESCUENTO UNIÓN"}, "geometry": {"type": "Point", "coordinates": [-92.653773, 18.531296]}},
{"type": "Feature", "id": "ueF6VXlBfsUX5773pat5huJH290=", "properties": {"ref": "bb9255c6f25247848c247c89ff845e56", "@spider": "farmacias_de_descuento_unión_mex_dpa", "addr:full": "Pino Suárez Esquina Benito Juárez 101, Col. Centro, Frontera, Centla, Tabasco, C.P. 86751", "addr:street": "Pino Suárez Esquina Benito Juárez 101", "addr:city": "Frontera", "addr:state": "Tabasco", "phones": {"Store": ["91 3332 0538"]}, "email": {"Customer Service": []}, "website": "https://www.farmaciasunion.com/sucursales.html", "operatingHours": {"Store": []}, "chain_id": "22318", "chain_name": "FARMACIAS DE DESCUENTO UNIÓN"}, "geometry": {"type": "Point", "coordinates": [-92.652401, 18.531467]}},
{"type": "Feature", "id": "IlqRuPOaeWMImqGJekgQsOarR0E=", "properties": {"ref": "b3f05096a9e74a5eb6f7bd7454f48260", "@spider": "farmacias_de_descuento_unión_mex_dpa", "addr:full": "Juan Aldama 617, Col. Centro, Frontera, Centla, Tabasco, C.P. 86750", "addr:street": "Juan Aldama 617", "addr:city": "Frontera", "addr:state": "Tabasco", "phones": {"Store": ["91 3332 0255"]}, "email": {"Customer Service": []}, "website": "https://www.farmaciasunion.com/sucursales.html", "operatingHours": {"Store": []}, "chain_id": "22318", "chain_name": "FARMACIAS DE DESCUENTO UNIÓN"}, "geometry": {"type": "Point", "coordinates": [-92.653265, 18.529942]}},
{"type": "Feature", "id": "oo1uKWd-yDxl389D_hs2JRPJ5ss=", "properties": {"ref": "107d340296d74b068e80dadaa38499a6", "@spider": "farmacias_de_descuento_unión_mex_dpa", "addr:full": "Juan del Grijalva Lote 81, Col. Centro, Frontera, Centla, Tabasco, C.P. 86750", "addr:street": "Juan del Grijalva Lote 81", "addr:city": "Frontera", "addr:state": "Tabasco", "phones": {"Store": ["91 3332 0225"]}, "email": {"Customer Service": []}, "website": "https://www.farmaciasunion.com/sucursales.html", "operatingHours": {"Store": []}, "chain_id": "22318", "chain_name": "FARMACIAS DE DESCUENTO UNIÓN"}, "geometry": {"type": "Point", "coordinates": [-92.636805, 18.529641]}},
{"type": "Feature", "id": "KYzEYnl40Ik_6NGHQPMfngNfpqg=", "properties": {"ref": "227f93b0d8c64620ad2f8495cfeb0086", "@spider": "farmacias_de_descuento_unión_mex_dpa", "addr:full": "Gregorio Méndez S/N, Col. Centro, Paraíso, Paraíso, Tabasco, C.P. 86600", "addr:street": "Gregorio Méndez S/N", "addr:city": "Paraíso", "addr:state": "Tabasco", "phones": {"Store": ["93 3333 3912"]}, "email": {"Customer Service": []}, "website": "https://www.farmaciasunion.com/sucursales.html", "operatingHours": {"Store": []}, "chain_id": "22318", "chain_name": "FARMACIAS DE DESCUENTO UNIÓN"}, "geometry": {"type": "Point", "coordinates": [-93.212445, 18.401374]}},
{"type": "Feature", "id": "ySbO1wJ-2WO4zvufvyStN-CNZMU=", "properties": {"ref": "a808d70d4ae446d0bf0f1000b4f8cf3d", "@spider": "farmacias_de_descuento_unión_mex_dpa", "addr:full": "Aquiles Serdán S/N, Col. Centro, Paraíso, Paraíso, Tabasco, C.P. 86600", "addr:street": "Aquiles Serdán S/N", "addr:city": "Paraíso", "addr:state": "Tabasco", "phones": {"Store": ["93 3333 0666"]}, "email": {"Customer Service": []}, "website": "https://www.farmaciasunion.com/sucursales.html", "operatingHours": {"Store": []}, "chain_id": "22318", "chain_name": "FARMACIAS DE DESCUENTO UNIÓN"}, "geometry": {"type": "Point", "coordinates": [-93.209799, 18.401368]}},
{"type": "Feature", "id": "NFV9TxL28sRY62CV-tTfWNy9BJ4=", "properties": {"ref": "50140deb872147528169c6a8744c7665", "@spider": "farmacias_de_descuento_unión_mex_dpa", "addr:full": "Nicolás Bravo 240, Col. Centro, Paraíso, Paraíso, Tabasco, C.P. 86600", "addr:street": "Nicolás Bravo 240", "addr:city": "Paraíso", "addr:state": "Tabasco", "phones": {"Store": ["93 3333 2509"]}, "email": {"Customer Service": []}, "website": "https://www.farmaciasunion.com/sucursales.html", "operatingHours": {"Store": []}, "chain_id": "22318", "chain_name": "FARMACIAS DE DESCUENTO UNIÓN"}, "geometry": {"type": "Point", "coordinates": [-93.212553, 18.400649]}},
{"type": "Feature", "id": "m71Ilyf2huheRxaFFH3H57LXS0Q=", "properties": {"ref": "b8836b388a034717a444eefe53e6bc9d", "@spider": "farmacias_de_descuento_unión_mex_dpa", "addr:full": "Ignacio Comonfort S/N, Col. Centro, Paraíso, Paraíso, Tabasco, C.P. 86600", "addr:street": "Ignacio Comonfort S/N", "addr:city": "Paraíso", "addr:state": "Tabasco", "phones": {"Store": ["93 3333 0393"]}, "email": {"Customer Service": []}, "website": "https://www.farmaciasunion.com/sucursales.html", "operatingHours": {"Store": []}, "chain_id": "22318", "chain_name": "FARMACIAS DE DESCUENTO UNIÓN"}, "geometry": {"type": "Point", "coordinates": [-93.213946, 18.395689]}},
{"type": "Feature", "id": "CnjLwt0UDtGnYAyO5wPfdRjI2Pk=", "properties": {"ref": "0670073e2749431dab783c971b92b8fc", "@spider": "farmacias_de_descuento_unión_mex_dpa", "addr:full": "Miguel Lerdo de Tejada 302, Col. Centro, Paraíso, Paraíso, Tabasco, C.P. 86605", "addr:street": "Miguel Lerdo de Tejada 302", "addr:city": "Paraíso", "addr:state": "Tabasco", "phones": {"Store": ["93 3333 2480"]}, "email": {"Customer Service": []}, "website": "https://www.farmaciasunion.com/sucursales.html", "operatingHours": {"Store": []}, "chain_id": "22318", "chain_name": "FARMACIAS DE DESCUENTO UNIÓN"}, "geometry": {"type": "Point", "coordinates": [-93.211757, 18.396805]}},
{"type": "Feature", "id": "ZTEXA7XMKQjhYlMyhoT6Ij2wyFk=", "properties": {"ref": "1924b78dc0cb43cca0ca7fe152807010", "@spider": "farmacias_de_descuento_unión_mex_dpa", "addr:full": "Carr. del Golfo S/N, Col. San Antonio Cárdenas, San Antonio Cárdenas, Ciudad del Carmen, Campeche, C.P. 24390", "addr:street": "Carr. del Golfo S/N", "addr:city": "San Antonio Cárdenas", "addr:state": "Campeche", "phones": {"Store": ["93 8118 7046"]}, "email": {"Customer Service": []}, "website": "https://www.farmaciasunion.com/sucursales.html", "operatingHours": {"Store": []}, "chain_id": "22318", "chain_name": "FARMACIAS DE DESCUENTO UNIÓN"}, "geometry": {"type": "Point", "coordinates": [-92.222373, 18.617554]}},
{"type": "Feature", "id": "195tNUAszcpdasM9rNKX41YiAX8=", "properties": {"ref": "a9a3c3ef3771465597719f4f03736e24", "@spider": "farmacias_de_descuento_unión_mex_dpa", "addr:full": "Quintín Arauz S/N, Col. Centro, Villa Vicente Guerrero, Centla, Tabasco, C.P. 86750", "addr:street": "Quintín Arauz S/N", "addr:city": "Villa Vicente Guerrero", "addr:state": "Tabasco", "phones": {"Store": ["91 3332 8035"]}, "email": {"Customer Service": []}, "website": "https://www.farmaciasunion.com/sucursales.html", "operatingHours": {"Store": []}, "chain_id": "22318", "chain_name": "FARMACIAS DE DESCUENTO UNIÓN"}, "geometry": {"type": "Point", "coordinates": [-92.89496, 18.390743]}},
{"type": "Feature", "id": "GuJaTMThhNzUAWWi0hfkWKL9Fh8=", "properties": {"ref": "61c17f5b5a6c48e795ecd21e8850c988", "@spider": "farmacias_de_descuento_unión_mex_dpa", "addr:full": "Josefa Ortiz de Domínguez 802, Col. Centro, Balancán, Balancán, Tabasco, C.P. 86930", "addr:street": "Josefa Ortiz de Domínguez 802", "addr:city": "Balancán", "addr:state": "Tabasco", "phones": {"Store": ["93 4344 0256"]}, "email": {"Customer Service": []}, "website": "https://www.farmaciasunion.com/sucursales.html", "operatingHours": {"Store": []}, "chain_id": "22318", "chain_name": "FARMACIAS DE DESCUENTO UNIÓN"}, "geometry": {"type": "Point", "coordinates": [-91.534624, 17.801251]}},
{"type": "Feature", "id": "aM063RY1lD1nLONESwO5IgLihL0=", "properties": {"ref": "5b09670b45634e038269e0eb57ce0d19", "@spider": "farmacias_de_descuento_unión_mex_dpa", "addr:full": "Av. Eusebio Castillo S/N, Col. Las Flores, Balancán, Balancán, Tabasco, C.P. 86930", "addr:street": "Av. Eusebio Castillo S/N", "addr:city": "Balancán", "addr:state": "Tabasco", "phones": {"Store": ["93 4344 1592"]}, "email": {"Customer Service": []}, "website": "https://www.farmaciasunion.com/sucursales.html", "operatingHours": {"Store": []}, "chain_id": "22318", "chain_name": "FARMACIAS DE DESCUENTO UNIÓN"}, "geometry": {"type": "Point", "coordinates": [-91.536775, 17.806313]}},
{"type": "Feature", "id": "70FoG3VUAURcfdfr5TDlfupzQwc=", "properties": {"ref": "de85ad5d16224ba982462de81e4b93d6", "@spider": "farmacias_de_descuento_unión_mex_dpa", "addr:full": "Antonio J. Bermudez, Col. Ampliacion Obrera, Ciudad Pemex, Macuspana, Tabasco, C.P. 86720", "addr:street": "Antonio J. Bermudez", "addr:city": "Ciudad Pemex", "addr:state": "Tabasco", "phones": {"Store": ["93 6364 2426"]}, "email": {"Customer Service": []}, "website": "https://www.farmaciasunion.com/sucursales.html", "operatingHours": {"Store": []}, "chain_id": "22318", "chain_name": "FARMACIAS DE DESCUENTO UNIÓN"}, "geometry": {"type": "Point", "coordinates": [-92.478378, 17.88506]}},
{"type": "Feature", "id": "2sotsGjNDtU4Kt8e2ZbuVso0zqQ=", "properties": {"ref": "ae62f9d948384250bd2029c5ee991b4e", "@spider": "farmacias_de_descuento_unión_mex_dpa", "addr:full": "Corregidora 49-A, Col. Centro, Emiliano Zapata, Emiliano Zapata, Tabasco, C.P. 86990", "addr:street": "Corregidora 49-A", "addr:city": "Emiliano Zapata", "addr:state": "Tabasco", "phones": {"Store": ["93 4343 1699"]}, "email": {"Customer Service": []}, "website": "https://www.farmaciasunion.com/sucursales.html", "operatingHours": {"Store": []}, "chain_id": "22318", "chain_name": "FARMACIAS DE DESCUENTO UNIÓN"}, "geometry": {"type": "Point", "coordinates": [-91.7659, 17.742291]}},
{"type": "Feature", "id": "qg1Fc2KPLbeEH0cX8Wp7vJyhRio=", "properties": {"ref": "6f18e9fed7a5493da7573d2aba41955d", "@spider": "farmacias_de_descuento_unión_mex_dpa", "addr:full": "Corregidora S/N, Col. Centro, Emiliano Zapata, Emiliano Zapata, Tabasco, C.P. 86981", "addr:street": "Corregidora S/N", "addr:city": "Emiliano Zapata", "addr:state": "Tabasco", "phones": {"Store": ["93 4343 0488"]}, "email": {"Customer Service": []}, "website": "https://www.farmaciasunion.com/sucursales.html", "operatingHours": {"Store": []}, "chain_id": "22318", "chain_name": "FARMACIAS DE DESCUENTO UNIÓN"}, "geometry": {"type": "Point", "coordinates": [-91.769977, 17.74174]}},
{"type": "Feature", "id": "UKbHekxKzgPx1W0AecVscb2f2A0=", "properties": {"ref": "9443b534e8cd4e7eb40860924e661824", "@spider": "farmacias_de_descuento_unión_mex_dpa", "addr:full": "Av. Chiapas S/N, Col. Ganadera, Emiliano Zapata, Emiliano Zapata, Tabasco, C.P. 86992", "addr:street": "Av. Chiapas S/N", "addr:city": "Emiliano Zapata", "addr:state": "Tabasco", "phones": {"Store": ["93 4343 1501"]}, "email": {"Customer Service": []}, "website": "https://www.farmaciasunion.com/sucursales.html", "operatingHours": {"Store": []}, "chain_id": "22318", "chain_name": "FARMACIAS DE DESCUENTO UNIÓN"}, "geometry": {"type": "Point", "coordinates": [-91.772355, 17.741574]}},
{"type": "Feature", "id": "iTk_qE5t7V1CDjGfxSRQ-AxSO-4=", "properties": {"ref": "277b302215a34ba195c6532848c8624e", "@spider": "farmacias_de_descuento_unión_mex_dpa", "addr:full": "Juárez 54, Col. Centro, Jonuta, Jonuta, Tabasco, C.P. 86781", "addr:street": "Juárez 54", "addr:city": "Jonuta", "addr:state": "Tabasco", "phones": {"Store": ["91 3367 0622"]}, "email": {"Customer Service": []}, "website": "https://www.farmaciasunion.com/sucursales.html", "operatingHours": {"Store": []}, "chain_id": "22318", "chain_name": "FARMACIAS DE DESCUENTO UNIÓN"}, "geometry": {"type": "Point", "coordinates": [-92.139429, 18.091751]}},
{"type": "Feature", "id": "vEFB2QDWE72pxOhPGXi4n50bvzc=", "properties": {"ref": "648a3cdddee44d3aad050b765a038172", "@spider": "farmacias_de_descuento_unión_mex_dpa", "addr:full": "Hidalgo 43, Col. Centro, Palenque, Palenque, Chiapas, C.P. 29960", "addr:street": "Hidalgo 43", "addr:city": "Palenque", "addr:state": "Chiapas", "phones": {"Store": ["91 6345 2010"]}, "email": {"Customer Service": []}, "website": "https://www.farmaciasunion.com/sucursales.html", "operatingHours": {"Store": []}, "chain_id": "22318", "chain_name": "FARMACIAS DE DESCUENTO UNIÓN"}, "geometry": {"type": "Point", "coordinates": [-91.979629, 17.509245]}},
{"type": "Feature", "id": "nXuTMnG2KjjidO_hDNMt6NFpyLQ=", "properties": {"ref": "ec14bf52c399472aba1d07aac6577dfe", "@spider": "farmacias_de_descuento_unión_mex_dpa", "addr:full": "Avenida Juárez S/N, Col. Centro, Palenque, Palenque, Chiapas, C.P. 29960", "addr:street": "Avenida Juárez S/N", "addr:city": "Palenque", "addr:state": "Chiapas", "phones": {"Store": ["91 6345 3247"]}, "email": {"Customer Service": []}, "website": "https://www.farmaciasunion.com/sucursales.html", "operatingHours": {"Store": []}, "chain_id": "22318", "chain_name": "FARMACIAS DE DESCUENTO UNIÓN"}, "geometry": {"type": "Point", "coordinates": [-91.986463, 17.508052]}},
{"type": "Feature", "id": "jT9Rl2NeycwFF86ONq7imPsjlec=", "properties": {"ref": "51040e4dd64d4e338ee98fbea7f3e4b7", "@spider": "farmacias_de_descuento_unión_mex_dpa", "addr:full": "Av. Dr. Manuel Velazco Suárez S/N, Col. Centro, Palenque, Palenque, Chiapas, C.P. 29960", "addr:street": "Av. Dr. Manuel Velazco Suárez S/N", "addr:city": "Palenque", "addr:state": "Chiapas", "phones": {"Store": ["91 6345 5015"]}, "email": {"Customer Service": []}, "website": "https://www.farmaciasunion.com/sucursales.html", "operatingHours": {"Store": []}, "chain_id": "22318", "chain_name": "FARMACIAS DE DESCUENTO UNIÓN"}, "geometry": {"type": "Point", "coordinates": [-91.986637, 17.51177]}},
{"type": "Feature", "id": "0FCntYP0knEBcbV06WR2IVajLJo=", "properties": {"ref": "7e2c6caad8fd4ef3978e40f3c6c525da", "@spider": "farmacias_de_descuento_unión_mex_dpa", "addr:full": "Av. Calzada de Lázaro Cárdenas S/N, Col. Pakal-Na, Palenque, Palenque, Chiapas, C.P. 29960", "addr:street": "Av. Calzada de Lázaro Cárdenas S/N", "addr:city": "Palenque", "addr:state": "Chiapas", "phones": {"Store": ["91 6345 0054"]}, "email": {"Customer Service": []}, "website": "https://www.farmaciasunion.com/sucursales.html", "operatingHours": {"Store": []}, "chain_id": "22318", "chain_name": "FARMACIAS DE DESCUENTO UNIÓN"}, "geometry": {"type": "Point", "coordinates": [-91.991392, 17.54102]}},
{"type": "Feature", "id": "jkoCQ_M4534PIUwdhukRPhG97ug=", "properties": {"ref": "3829dc88d0d9488cb1295858ec806bd1", "@spider": "farmacias_de_descuento_unión_mex_dpa", "addr:full": "Ignacio Zaragoza S/N, Col. Centro, Salto de Agua, Salto de Agua, Chiapas, C.P. 29900", "addr:street": "Ignacio Zaragoza S/N", "addr:city": "Salto de Agua", "addr:state": "Chiapas", "phones": {"Store": ["91 6368 0552"]}, "email": {"Customer Service": []}, "website": "https://www.farmaciasunion.com/sucursales.html", "operatingHours": {"Store": []}, "chain_id": "22318", "chain_name": "FARMACIAS DE DESCUENTO UNIÓN"}, "geometry": {"type": "Point", "coordinates": [-92.3334, 17.556565]}},
{"type": "Feature", "id": "e7xlleEdjAfJ_bOgLopKrkO9G78=", "properties": {"ref": "b75d80883e52417faeea48620cfafbe7", "@spider": "farmacias_de_descuento_unión_mex_dpa", "addr:full": "Calle 26 S/N, Col. Centro, Tenosique, Tenosique, Tabasco, C.P. 86901", "addr:street": "Calle 26 S/N", "addr:city": "Tenosique", "addr:state": "Tabasco", "phones": {"Store": ["93 4342 2065"]}, "email": {"Customer Service": []}, "website": "https://www.farmaciasunion.com/sucursales.html", "operatingHours": {"Store": []}, "chain_id": "22318", "chain_name": "FARMACIAS DE DESCUENTO UNIÓN"}, "geometry": {"type": "Point", "coordinates": [-91.425033, 17.474111]}},
{"type": "Feature", "id": "R98S18jgyEhiw35XCsrxnRXZb7g=", "properties": {"ref": "a1643f479ea049b3a60382ca3a8900a6", "@spider": "farmacias_de_descuento_unión_mex_dpa", "addr:full": "Calle 26 203, Col. Centro, Tenosique, Tenosique, Tabasco, C.P. 86900", "addr:street": "Calle 26 203", "addr:city": "Tenosique", "addr:state": "Tabasco", "phones": {"Store": ["93 4342 0404"]}, "email": {"Customer Service": []}, "website": "https://www.farmaciasunion.com/sucursales.html", "operatingHours": {"Store": []}, "chain_id": "22318", "chain_name": "FARMACIAS DE DESCUENTO UNIÓN"}, "geometry": {"type": "Point", "coordinates": [-91.42576, 17.47696]}},
{"type": "Feature", "id": "RdCXB3qNIjDdHBVtYX68dev68nE=", "properties": {"ref": "54776b8468714c5f880787d33b61c6e3", "@spider": "farmacias_de_descuento_unión_mex_dpa", "addr:full": "Av. del Bosque Sn Lote 11 Mza 49, Col. Fracc. Bosques de Saloya, Saloya, Nacajuca, Tabasco, C.P. 86220", "addr:street": "Av. del Bosque Sn Lote 11 Mza 49", "addr:city": "Saloya", "addr:state": "Tabasco", "phones": {"Store": ["99 3139 6450"]}, "email": {"Customer Service": []}, "website": "https://www.farmaciasunion.com/sucursales.html", "operatingHours": {"Store": []}, "chain_id": "22318", "chain_name": "FARMACIAS DE DESCUENTO UNIÓN"}, "geometry": {"type": "Point", "coordinates": [-92.956908, 18.016887]}},
{"type": "Feature", "id": "D2FUm7BlpSlPYmY99kRjk-uZheg=", "properties": {"ref": "99342d83e37648d6ac75c408ecd74977", "@spider": "farmacias_de_descuento_unión_mex_dpa", "addr:full": "Boulevard Cucuyulpa S/N, Col. Centro, Cucuyulapa, Cunduacán, Tabasco, C.P. 86698", "addr:street": "Boulevard Cucuyulpa S/N", "addr:city": "Cucuyulapa", "addr:state": "Tabasco", "phones": {"Store": ["91 4336 4124"]}, "email": {"Customer Service": []}, "website": "https://www.farmaciasunion.com/sucursales.html", "operatingHours": {"Store": []}, "chain_id": "22318", "chain_name": "FARMACIAS DE DESCUENTO UNIÓN"}, "geometry": {"type": "Point", "coordinates": [-93.255985, 17.991688]}},
{"type": "Feature", "id": "GX1AZIBAjin3t1jROCyKyzUVHD8=", "properties": {"ref": "c46b5751baa841bebab5fbb0cd35b9fd", "@spider": "farmacias_de_descuento_unión_mex_dpa", "addr:full": "Iquinuapa Centro (Sin Nombre S/N), Col. Centro, Iquinuapa, Jalpa de Méndez, Tabasco, C.P. 86200", "addr:street": "Iquinuapa Centro (Sin Nombre S/N)", "addr:city": "Iquinuapa", "addr:state": "Tabasco", "phones": {"Store": ["91 4101 2132"]}, "email": {"Customer Service": []}, "website": "https://www.farmaciasunion.com/sucursales.html", "operatingHours": {"Store": []}, "chain_id": "22318", "chain_name": "FARMACIAS DE DESCUENTO UNIÓN"}, "geometry": {"type": "Point", "coordinates": [-93.119776, 18.195318]}},
{"type": "Feature", "id": "69XBCFYlHeuS_xQodY_-doPbZlw=", "properties": {"ref": "d7048fbe70d64705992827245c1b5d65", "@spider": "farmacias_de_descuento_unión_mex_dpa", "addr:full": "Plaza Hidalgo 48 – A P/B, Col. Centro, Jalpa de Méndez, Jalpa de Méndez, Tabasco, C.P. 86200", "addr:street": "Plaza Hidalgo 48 – A P/B", "addr:city": "Jalpa de Méndez", "addr:state": "Tabasco", "phones": {"Store": ["91 4337 0964"]}, "email": {"Customer Service": []}, "website": "https://www.farmaciasunion.com/sucursales.html", "operatingHours": {"Store": []}, "chain_id": "22318", "chain_name": "FARMACIAS DE DESCUENTO UNIÓN"}, "geometry": {"type": "Point", "coordinates": [-93.06345, 18.175813]}},
{"type": "Feature", "id": "iXDYu5BqsZD1h3jVvlHmvZlHc98=", "properties": {"ref": "ce8be046b0174b5a90187c31e379e9ba", "@spider": "farmacias_de_descuento_unión_mex_dpa", "addr:full": "Nicolás Bravo 5, Col. Barrio La Guadalupe, Jalpa de Méndez, Jalpa de Méndez, Tabasco, C.P. 86200", "addr:street": "Nicolás Bravo 5", "addr:city": "Jalpa de Méndez", "addr:state": "Tabasco", "phones": {"Store": ["91 4337 2096"]}, "email": {"Customer Service": []}, "website": "https://www.farmaciasunion.com/sucursales.html", "operatingHours": {"Store": []}, "chain_id": "22318", "chain_name": "FARMACIAS DE DESCUENTO UNIÓN"}, "geometry": {"type": "Point", "coordinates": [-93.057568, 18.177701]}},
{"type": "Feature", "id": "EszNhgYK1w2W4oNazvuL0ackS3c=", "properties": {"ref": "2e6ec1b62bdc4de5a359b2834b7299aa", "@spider": "farmacias_de_descuento_unión_mex_dpa", "addr:full": "Calle Olimpiada 68 S/N, Col. Centro, Juárez, Juárez, Chiapas, C.P. 29510", "addr:street": "Calle Olimpiada 68 S/N", "addr:city": "Juárez", "addr:state": "Chiapas", "phones": {"Store": ["93 2326 0152"]}, "email": {"Customer Service": []}, "website": "https://www.farmaciasunion.com/sucursales.html", "operatingHours": {"Store": []}, "chain_id": "22318", "chain_name": "FARMACIAS DE DESCUENTO UNIÓN"}, "geometry": {"type": "Point", "coordinates": [-93.192752, 17.608379]}},
{"type": "Feature", "id": "QM2fzfdu--urTaxD4T36uQtlQoU=", "properties": {"ref": "fc5f8f3200da448f87bf8d2114872665", "@spider": "farmacias_de_descuento_unión_mex_dpa", "addr:full": "Leon Alejo Torres 22, Col. Centro, Nacajuca, Nacajuca, Tabasco, C.P. 86220", "addr:street": "Leon Alejo Torres 22", "addr:city": "Nacajuca", "addr:state": "Tabasco", "phones": {"Store": ["91 4104 0152"]}, "email": {"Customer Service": []}, "website": "https://www.farmaciasunion.com/sucursales.html", "operatingHours": {"Store": []}, "chain_id": "22318", "chain_name": "FARMACIAS DE DESCUENTO UNIÓN"}, "geometry": {"type": "Point", "coordinates": [-93.018449, 18.16797]}},
{"type": "Feature", "id": "7WbF66pRNt0hYo6rMPJl0mraT9o=", "properties": {"ref": "26861694b632426a99895e535524a2f5", "@spider": "farmacias_de_descuento_unión_mex_dpa", "addr:full": "Antonio Ruiz S/N, Col. Centro, Nacajuca, Nacajuca, Tabasco, C.P. 86220", "addr:street": "Antonio Ruiz S/N", "addr:city": "Nacajuca", "addr:state": "Tabasco", "phones": {"Store": ["91 4337 8758"]}, "email": {"Customer Service": []}, "website": "https://www.farmaciasunion.com/sucursales.html", "operatingHours": {"Store": []}, "chain_id": "22318", "chain_name": "FARMACIAS DE DESCUENTO UNIÓN"}, "geometry": {"type": "Point", "coordinates": [-93.019882, 18.167638]}},
{"type": "Feature", "id": "Lkuj7olGazjh1nX-AXKhtC6_RfE=", "properties": {"ref": "9270a7761c594d659a43929d0919d81e", "@spider": "farmacias_de_descuento_unión_mex_dpa", "addr:full": "Av. Samarkanda S/N, Col. Pomoca, Pomoca, Nacajuca, Tabasco, C.P. 86245", "addr:street": "Av. Samarkanda S/N", "addr:city": "Pomoca", "addr:state": "Tabasco", "phones": {"Store": ["-"]}, "email": {"Customer Service": []}, "website": "https://www.farmaciasunion.com/sucursales.html", "operatingHours": {"Store": []}, "chain_id": "22318", "chain_name": "FARMACIAS DE DESCUENTO UNIÓN"}, "geometry": {"type": "Point", "coordinates": [-92.933608, 18.052759]}},
{"type": "Feature", "id": "3a5TeY_I3BYopNgogXFu_VkXkM8=", "properties": {"ref": "8010cad4f7ae4f9c8347ab80fcbc9bcf", "@spider": "farmacias_de_descuento_unión_mex_dpa", "addr:full": "Carret. Rancheria Saloya 2Da Sección S/N, Col. Pomoca, Pomoca, Nacajuca, Tabasco, C.P. 86220", "addr:street": "Carret. Rancheria Saloya 2Da Sección S/N", "addr:city": "Pomoca", "addr:state": "Tabasco", "phones": {"Store": ["99 3317 9742"]}, "email": {"Customer Service": []}, "website": "https://www.farmaciasunion.com/sucursales.html", "operatingHours": {"Store": []}, "chain_id": "22318", "chain_name": "FARMACIAS DE DESCUENTO UNIÓN"}, "geometry": {"type": "Point", "coordinates": [-92.935295, 18.054014]}},
{"type": "Feature", "id": "paXqtSftTj1_ybCrBmiY6gbWctY=", "properties": {"ref": "88d8d00cc65a4109be5ef61ed582022e", "@spider": "farmacias_de_descuento_unión_mex_dpa", "addr:full": "Margarita Maza de Juárez S/N, Col. Centro, Reforma, Reforma, Chiapas, C.P. 29500", "addr:street": "Margarita Maza de Juárez S/N", "addr:city": "Reforma", "addr:state": "Chiapas", "phones": {"Store": ["91 7328 0320"]}, "email": {"Customer Service": []}, "website": "https://www.farmaciasunion.com/sucursales.html", "operatingHours": {"Store": []}, "chain_id": "22318", "chain_name": "FARMACIAS DE DESCUENTO UNIÓN"}, "geometry": {"type": "Point", "coordinates": [-93.149995, 17.862919]}},
{"type": "Feature", "id": "BsjSF2dqrKMnJndzPFiqMTEGwug=", "properties": {"ref": "c7f8d79f914548d28edd4a461359f247", "@spider": "farmacias_de_descuento_unión_mex_dpa", "addr:full": "Adolfo López Mateo S/N, Col. Centro, Reforma, Reforma, Chiapas, C.P. 29500", "addr:street": "Adolfo López Mateo S/N", "addr:city": "Reforma", "addr:state": "Chiapas", "phones": {"Store": ["91 7328 0793"]}, "email": {"Customer Service": []}, "website": "https://www.farmaciasunion.com/sucursales.html", "operatingHours": {"Store": []}, "chain_id": "22318", "chain_name": "FARMACIAS DE DESCUENTO UNIÓN"}, "geometry": {"type": "Point", "coordinates": [-93.147797, 17.865455]}},
{"type": "Feature", "id": "-4nbvTdtQzA3tXS_sX_DpNAZ21A=", "properties": {"ref": "eb3267cadfbd404aa4442695287f5156", "@spider": "farmacias_de_descuento_unión_mex_dpa", "addr:full": "José María Pino Suárez 747, Col. Centro, Jalapa, Jalapa, Tabasco, C.P. 86850", "addr:street": "José María Pino Suárez 747", "addr:city": "Jalapa", "addr:state": "Tabasco", "phones": {"Store": ["93 2363 0510"]}, "email": {"Customer Service": []}, "website": "https://www.farmaciasunion.com/sucursales.html", "operatingHours": {"Store": []}, "chain_id": "22318", "chain_name": "FARMACIAS DE DESCUENTO UNIÓN"}, "geometry": {"type": "Point", "coordinates": [-92.812287, 17.719723]}},
{"type": "Feature", "id": "qFgT1lcykTIQtIc_6k62UzG89Os=", "properties": {"ref": "e41a513c4d8c488783d6542396733f0f", "@spider": "farmacias_de_descuento_unión_mex_dpa", "addr:full": "Paseo José Narciso Rovirosa 35, Col. Centro, Macuspana, Macuspana, Tabasco, C.P. 86700", "addr:street": "Paseo José Narciso Rovirosa 35", "addr:city": "Macuspana", "addr:state": "Tabasco", "phones": {"Store": ["93 6362 2399"]}, "email": {"Customer Service": []}, "website": "https://www.farmaciasunion.com/sucursales.html", "operatingHours": {"Store": []}, "chain_id": "22318", "chain_name": "FARMACIAS DE DESCUENTO UNIÓN"}, "geometry": {"type": "Point", "coordinates": [-92.599304, 17.761619]}},
{"type": "Feature", "id": "fE1DNriMUXnwuiADaOJIWcS-7AM=", "properties": {"ref": "d66b3c006cfc41449fdeb9f3577c9d30", "@spider": "farmacias_de_descuento_unión_mex_dpa", "addr:full": "Miguel Hidalgo 420, Col. Centro, Macuspana, Macuspana, Tabasco, C.P. 86700", "addr:street": "Miguel Hidalgo 420", "addr:city": "Macuspana", "addr:state": "Tabasco", "phones": {"Store": ["93 6362 9267"]}, "email": {"Customer Service": []}, "website": "https://www.farmaciasunion.com/sucursales.html", "operatingHours": {"Store": []}, "chain_id": "22318", "chain_name": "FARMACIAS DE DESCUENTO UNIÓN"}, "geometry": {"type": "Point", "coordinates": [-92.593144, 17.759287]}},
{"type": "Feature", "id": "gDm4lOvwBwY-f1urWdfOvuBQ9nw=", "properties": {"ref": "1cdc9ce95baf418981cfa577399118f6", "@spider": "farmacias_de_descuento_unión_mex_dpa", "addr:full": "Melchor Ocampo 341, Col. Centro, Macuspana, Macuspana, Tabasco, C.P. 86700", "addr:street": "Melchor Ocampo 341", "addr:city": "Macuspana", "addr:state": "Tabasco", "phones": {"Store": ["93 6362 1387"]}, "email": {"Customer Service": []}, "website": "https://www.farmaciasunion.com/sucursales.html", "operatingHours": {"Store": []}, "chain_id": "22318", "chain_name": "FARMACIAS DE DESCUENTO UNIÓN"}, "geometry": {"type": "Point", "coordinates": [-92.59231, 17.75813]}},
{"type": "Feature", "id": "M3F9BdGOtLwHmO0yUEwM_3wQ-0I=", "properties": {"ref": "1952f2a7de504048a55a9422d103542f", "@spider": "farmacias_de_descuento_unión_mex_dpa", "addr:full": "Aurora y Zaragoza S/N, Col. Centro, Pichucalco, Pichucalco, Chiapas, C.P. 29520", "addr:street": "Aurora y Zaragoza S/N", "addr:city": "Pichucalco", "addr:state": "Chiapas", "phones": {"Store": ["93 2323 0126"]}, "email": {"Customer Service": []}, "website": "https://www.farmaciasunion.com/sucursales.html", "operatingHours": {"Store": []}, "chain_id": "22318", "chain_name": "FARMACIAS DE DESCUENTO UNIÓN"}, "geometry": {"type": "Point", "coordinates": [-93.117577, 17.509898]}},
{"type": "Feature", "id": "BozR67GjdcjBbmhIi6HC6CvW2Wc=", "properties": {"ref": "f03e9dec3ec2494a89ea14b091a13880", "@spider": "farmacias_de_descuento_unión_mex_dpa", "addr:full": "Fracc. Las Palmeras S/N, Col. Fracc Las Palmas, Pichucalco, Pichucalco, Chiapas, C.P. 29520", "addr:street": "Fracc. Las Palmeras S/N", "addr:city": "Pichucalco", "addr:state": "Chiapas", "phones": {"Store": ["93 2323 0338"]}, "email": {"Customer Service": []}, "website": "https://www.farmaciasunion.com/sucursales.html", "operatingHours": {"Store": []}, "chain_id": "22318", "chain_name": "FARMACIAS DE DESCUENTO UNIÓN"}, "geometry": {"type": "Point", "coordinates": [-93.120722, 17.513708]}},
{"type": "Feature", "id": "MleVdUimbp0x0EGWoH6CU-G5fso=", "properties": {"ref": "496f8894a87c4e8097b235cc829ec97d", "@spider": "farmacias_de_descuento_unión_mex_dpa", "addr:full": "Benito Juárez 40, Col. Benito Juárez, San Carlos, Macuspana, Tabasco, C.P. 86725", "addr:street": "Benito Juárez 40", "addr:city": "San Carlos", "addr:state": "Tabasco", "phones": {"Store": ["93 6361 0675"]}, "email": {"Customer Service": []}, "website": "https://www.farmaciasunion.com/sucursales.html", "operatingHours": {"Store": []}, "chain_id": "22318", "chain_name": "FARMACIAS DE DESCUENTO UNIÓN"}, "geometry": {"type": "Point", "coordinates": [-92.530606, 17.834185]}},
{"type": "Feature", "id": "CsLdCKBPfn-T_LJDjXrZa4eLlYM=", "properties": {"ref": "f1267fb6767d439081f56380244a3b6b", "@spider": "farmacias_de_descuento_unión_mex_dpa", "addr:full": "Calle Corregidora Sn, Col. Centro, San Fernando, Macuspana, Tabasco, C.P. 86725", "addr:street": "Calle Corregidora Sn", "addr:city": "San Fernando", "addr:state": "Tabasco", "phones": {"Store": ["93 6363 3057"]}, "email": {"Customer Service": []}, "website": "https://www.farmaciasunion.com/sucursales.html", "operatingHours": {"Store": []}, "chain_id": "22318", "chain_name": "FARMACIAS DE DESCUENTO UNIÓN"}, "geometry": {"type": "Point", "coordinates": [-92.489978, 17.804902]}},
{"type": "Feature", "id": "x8jonbe5bahWQLWZejYvNrT4xQU=", "properties": {"ref": "7c86aeb07447410db4ef919ba0c92762", "@spider": "farmacias_de_descuento_unión_mex_dpa", "addr:full": "Miguel Orrico de Los Llanos S/N, Col. Pueblo Nuevo, Tacotalpa, Tacotalpa, Tabasco, C.P. 86870", "addr:street": "Miguel Orrico de Los Llanos S/N", "addr:city": "Tacotalpa", "addr:state": "Tabasco", "phones": {"Store": ["93 2324 2031"]}, "email": {"Customer Service": []}, "website": "https://www.farmaciasunion.com/sucursales.html", "operatingHours": {"Store": []}, "chain_id": "22318", "chain_name": "FARMACIAS DE DESCUENTO UNIÓN"}, "geometry": {"type": "Point", "coordinates": [-92.825037, 17.595131]}},
{"type": "Feature", "id": "e0wx7qDiAswzczqioIl7OeNqYms=", "properties": {"ref": "7738dca480c34111aadf66755c765cc0", "@spider": "farmacias_de_descuento_unión_mex_dpa", "addr:full": "Av. Gregorio Méndez #122-B, Col. Centro, Teapa, Teapa, Tabasco, C.P. 86800", "addr:street": "Av. Gregorio Méndez #122-B", "addr:city": "Teapa", "addr:state": "Tabasco", "phones": {"Store": ["93 2322 2032"]}, "email": {"Customer Service": []}, "website": "https://www.farmaciasunion.com/sucursales.html", "operatingHours": {"Store": []}, "chain_id": "22318", "chain_name": "FARMACIAS DE DESCUENTO UNIÓN"}, "geometry": {"type": "Point", "coordinates": [-92.952971, 17.54985]}},
{"type": "Feature", "id": "6SABi9UTPO43rdaDH0G5GB7J33g=", "properties": {"ref": "066a7efa33e54ad58d47359631c67109", "@spider": "farmacias_de_descuento_unión_mex_dpa", "addr:full": "Gregorio Méndez 220, Col. Centro, Teapa, Teapa, Tabasco, C.P. 86800", "addr:street": "Gregorio Méndez 220", "addr:city": "Teapa", "addr:state": "Tabasco", "phones": {"Store": ["93 2322 0571"]}, "email": {"Customer Service": []}, "website": "https://www.farmaciasunion.com/sucursales.html", "operatingHours": {"Store": []}, "chain_id": "22318", "chain_name": "FARMACIAS DE DESCUENTO UNIÓN"}, "geometry": {"type": "Point", "coordinates": [-92.951937, 17.551723]}},
{"type": "Feature", "id": "ycuc8GpeaqGds6xm7grYGS2grw4=", "properties": {"ref": "a2c45aa397684e81bfb68ecd1ca2e29f", "@spider": "farmacias_de_descuento_unión_mex_dpa", "addr:full": "Av. Carlos Ramos 258, Col. Centro, Teapa, Teapa, Tabasco, C.P. 86800", "addr:street": "Av. Carlos Ramos 258", "addr:city": "Teapa", "addr:state": "Tabasco", "phones": {"Store": ["93 2322 3094"]}, "email": {"Customer Service": []}, "website": "https://www.farmaciasunion.com/sucursales.html", "operatingHours": {"Store": []}, "chain_id": "22318", "chain_name": "FARMACIAS DE DESCUENTO UNIÓN"}, "geometry": {"type": "Point", "coordinates": [-92.950464, 17.559041]}},
{"type": "Feature", "id": "VzJm_TGKQopZqbIw7dKVQqoMq00=", "properties": {"ref": "b1d9c0c63b3248d997b56679856bed60", "@spider": "farmacias_de_descuento_unión_mex_dpa", "addr:full": "Damian Piza Beltran Lote12 Manz 6 L-2, Col. Fracc. Chacuiba, Teapa, Teapa, Tabasco, C.P. 86800", "addr:street": "Damian Piza Beltran Lote12 Manz 6 L-2", "addr:city": "Teapa", "addr:state": "Tabasco", "phones": {"Store": ["93 2322 0516"]}, "email": {"Customer Service": []}, "website": "https://www.farmaciasunion.com/sucursales.html", "operatingHours": {"Store": []}, "chain_id": "22318", "chain_name": "FARMACIAS DE DESCUENTO UNIÓN"}, "geometry": {"type": "Point", "coordinates": [-92.949202, 17.553823]}},
{"type": "Feature", "id": "uzNGmE-xvAQ1omJNvIg6ZvkYZ_w=", "properties": {"ref": "73cd9e8bdcf3415c846b3c56427a392f", "@spider": "farmacias_de_descuento_unión_mex_dpa", "addr:full": "Av. Lázaro Cárdenas 799 L-3, Col. Centro, Carrillo Puerto, Felipe Carrillo Puerto, Quintana Roo, C.P. 77200", "addr:street": "Av. Lázaro Cárdenas 799 L-3", "addr:city": "Carrillo Puerto", "addr:state": "Quintana Roo", "phones": {"Store": ["98 3834 1490"]}, "email": {"Customer Service": []}, "website": "https://www.farmaciasunion.com/sucursales.html", "operatingHours": {"Store": []}, "chain_id": "22318", "chain_name": "FARMACIAS DE DESCUENTO UNIÓN"}, "geometry": {"type": "Point", "coordinates": [-88.04427, 19.58021]}},
{"type": "Feature", "id": "GHv0ArzK5FDgV-k_8EkpDrjEiAI=", "properties": {"ref": "c355a41dd98240f0ba51c03cbe596881", "@spider": "farmacias_de_descuento_unión_mex_dpa", "addr:full": "Av. Benito Juárez S/N, Col. Centro, Carrillo Puerto, Felipe Carrillo Puerto, Quintana Roo, C.P. 77200", "addr:street": "Av. Benito Juárez S/N", "addr:city": "Carrillo Puerto", "addr:state": "Quintana Roo", "phones": {"Store": ["98 3834 1524"]}, "email": {"Customer Service": []}, "website": "https://www.farmaciasunion.com/sucursales.html", "operatingHours": {"Store": []}, "chain_id": "22318", "chain_name": "FARMACIAS DE DESCUENTO UNIÓN"}, "geometry": {"type": "Point", "coordinates": [-88.044823, 19.573823]}},
{"type": "Feature", "id": "gTdYqYDeW1jK32BKk6Me6INGn2o=", "properties": {"ref": "294a3197d80f4356ae0267cded3ea18b", "@spider": "farmacias_de_descuento_unión_mex_dpa", "addr:full": "José María Morelos 197, Col. Morelos, José María Morelos, José María Morelos, Quintana Roo, C.P. 77890", "addr:street": "José María Morelos 197", "addr:city": "José María Morelos", "addr:state": "Quintana Roo", "phones": {"Store": ["99 7978 0189"]}, "email": {"Customer Service": []}, "website": "https://www.farmaciasunion.com/sucursales.html", "operatingHours": {"Store": []}, "chain_id": "22318", "chain_name": "FARMACIAS DE DESCUENTO UNIÓN"}, "geometry": {"type": "Point", "coordinates": [-88.710056, 19.749611]}},
{"type": "Feature", "id": "a2NBJONG6nm0liddsFPjmYBwILQ=", "properties": {"ref": "af77207f3149482495cb5397c9544e1d", "@spider": "farmacias_de_descuento_unión_mex_dpa", "addr:full": "Av. 30 Nte. Con Calle 2 118, Col. Centro, Playa del Carmen, Playa del Carmen, Quintana Roo, C.P. 77710", "addr:street": "Av. 30 Nte. Con Calle 2 118", "addr:city": "Playa del Carmen", "addr:state": "Quintana Roo", "phones": {"Store": ["98 4803 3246"]}, "email": {"Customer Service": []}, "website": "https://www.farmaciasunion.com/sucursales.html", "operatingHours": {"Store": []}, "chain_id": "22318", "chain_name": "FARMACIAS DE DESCUENTO UNIÓN"}, "geometry": {"type": "Point", "coordinates": [-87.079292, 20.626211]}},
{"type": "Feature", "id": "XeghmOCTuCYn3HhN4A4HKIeQ7BM=", "properties": {"ref": "9d377752dd8c4c2e8c599b0c9917d9fe", "@spider": "farmacias_de_descuento_unión_mex_dpa", "addr:full": "Av. Benito Juárez Mza 214 Lote 6 L- 1 y 2, Col. Ejidal, Playa del Carmen, Playa del Carmen, Quintana Roo, C.P. 77712", "addr:street": "Av. Benito Juárez Mza 214 Lote 6 L- 1 y 2", "addr:city": "Playa del Carmen", "addr:state": "Quintana Roo", "phones": {"Store": ["98 4803 1970"]}, "email": {"Customer Service": []}, "website": "https://www.farmaciasunion.com/sucursales.html", "operatingHours": {"Store": []}, "chain_id": "22318", "chain_name": "FARMACIAS DE DESCUENTO UNIÓN"}, "geometry": {"type": "Point", "coordinates": [-87.089377, 20.630869]}},
{"type": "Feature", "id": "0Qjt0rxCviosro3x7cJ3fHV9P-g=", "properties": {"ref": "a9433f5fb9ae49f28d403a62664bff6c", "@spider": "farmacias_de_descuento_unión_mex_dpa", "addr:full": "Av Benito Juárez S/N, Col. Ejidal, Playa del Carmen, Playa del Carmen, Quintana Roo, C.P. 77710", "addr:street": "Av Benito Juárez S/N", "addr:city": "Playa del Carmen", "addr:state": "Quintana Roo", "phones": {"Store": ["98 4206 1330"]}, "email": {"Customer Service": []}, "website": "https://www.farmaciasunion.com/sucursales.html", "operatingHours": {"Store": []}, "chain_id": "22318", "chain_name": "FARMACIAS DE DESCUENTO UNIÓN"}, "geometry": {"type": "Point", "coordinates": [-87.093954, 20.634103]}},
{"type": "Feature", "id": "GvT1Li5dx7OS9qsN5k768-BxJwM=", "properties": {"ref": "470ab8a592f54cb199c9ec3cfac8b455", "@spider": "farmacias_de_descuento_unión_mex_dpa", "addr:full": "Av Canario Yucateco Mza-020 Lote 009 1, Col. Villas del Sol, Playa del Carmen, Playa del Carmen, Quintana Roo, C.P. 77723", "addr:street": "Av Canario Yucateco Mza-020 Lote 009 1", "addr:city": "Playa del Carmen", "addr:state": "Quintana Roo", "phones": {"Store": ["-"]}, "email": {"Customer Service": []}, "website": "https://www.farmaciasunion.com/sucursales.html", "operatingHours": {"Store": []}, "chain_id": "22318", "chain_name": "FARMACIAS DE DESCUENTO UNIÓN"}, "geometry": {"type": "Point", "coordinates": [-87.11831, 20.674291]}},
{"type": "Feature", "id": "zON8nhzt7yDBEhI9MdUhp_94zrY=", "properties": {"ref": "46b1de5db5e14a9583c526d4d7b622e8", "@spider": "farmacias_de_descuento_unión_mex_dpa", "addr:full": "Av. 30 Mza. 131 Lte. 10 S/N Loc. 2 y 3 , Col. Zacil-Ha, Playa del Carmen, Playa del Carmen, Quintana Roo, C.P. 77710", "addr:street": "Av. 30 Mza. 131 Lte. 10 S/N Loc. 2 y 3 ", "addr:city": "Playa del Carmen", "addr:state": "Quintana Roo", "phones": {"Store": ["98 4803 6543"]}, "email": {"Customer Service": []}, "website": "https://www.farmaciasunion.com/sucursales.html", "operatingHours": {"Store": []}, "chain_id": "22318", "chain_name": "FARMACIAS DE DESCUENTO UNIÓN"}, "geometry": {"type": "Point", "coordinates": [-87.069692, 20.639324]}},
{"type": "Feature", "id": "sDdiZxUUIV2-4jEDBLEiVRP6gvQ=", "properties": {"ref": "6a74ce1aa9264e9e8f5d3a48f1956672", "@spider": "farmacias_de_descuento_unión_mex_dpa", "addr:full": "Av. Tulum Oriente 4, Col. Centro, Tulum, Tulum, Quintana Roo, C.P. 77760", "addr:street": "Av. Tulum Oriente 4", "addr:city": "Tulum", "addr:state": "Quintana Roo", "phones": {"Store": ["98 4871 2491"]}, "email": {"Customer Service": []}, "website": "https://www.farmaciasunion.com/sucursales.html", "operatingHours": {"Store": []}, "chain_id": "22318", "chain_name": "FARMACIAS DE DESCUENTO UNIÓN"}, "geometry": {"type": "Point", "coordinates": [-87.46076, 20.211613]}},
{"type": "Feature", "id": "PcPBMPc3tXXpJCuGmD_Xk8eJ5QU=", "properties": {"ref": "3dd32d545e4a4ed79961a4f06977cb97", "@spider": "farmacias_de_descuento_unión_mex_dpa", "addr:full": "Av. Miguel Hidalgo 617, Col. Centro, Ciudad Mendoza, Ciudad Mendoza, Veracruz, C.P. 94740", "addr:street": "Av. Miguel Hidalgo 617", "addr:city": "Ciudad Mendoza", "addr:state": "Veracruz", "phones": {"Store": ["27 2742 7543"]}, "email": {"Customer Service": []}, "website": "https://www.farmaciasunion.com/sucursales.html", "operatingHours": {"Store": []}, "chain_id": "22318", "chain_name": "FARMACIAS DE DESCUENTO UNIÓN"}, "geometry": {"type": "Point", "coordinates": [-97.181373, 18.803508]}},
{"type": "Feature", "id": "C1tyRPiX9Wo3fdqP2GG6TZDpMVg=", "properties": {"ref": "a438f9356ca14c1aab152e12e9dfc946", "@spider": "farmacias_de_descuento_unión_mex_dpa", "addr:full": "Av. Miguel Hidalgo 501-A, Col. Centro, Ciudad Mendoza, Ciudad Mendoza, Veracruz, C.P. 94740", "addr:street": "Av. Miguel Hidalgo 501-A", "addr:city": "Ciudad Mendoza", "addr:state": "Veracruz", "phones": {"Store": ["27 2742 7191"]}, "email": {"Customer Service": []}, "website": "https://www.farmaciasunion.com/sucursales.html", "operatingHours": {"Store": []}, "chain_id": "22318", "chain_name": "FARMACIAS DE DESCUENTO UNIÓN"}, "geometry": {"type": "Point", "coordinates": [-97.180068, 18.804586]}},
{"type": "Feature", "id": "sNF5h86rXo-GNZ7H2_INVkz4tEA=", "properties": {"ref": "2695061bb3044396b7db538b34e72d44", "@spider": "farmacias_de_descuento_unión_mex_dpa", "addr:full": "Norte 2 4, Col. Centro, Orizaba, Orizaba, Veracruz, C.P. 94300", "addr:street": "Norte 2 4", "addr:city": "Orizaba", "addr:state": "Veracruz", "phones": {"Store": ["27 2725 2566"]}, "email": {"Customer Service": []}, "website": "https://www.farmaciasunion.com/sucursales.html", "operatingHours": {"Store": []}, "chain_id": "22318", "chain_name": "FARMACIAS DE DESCUENTO UNIÓN"}, "geometry": {"type": "Point", "coordinates": [-97.104429, 18.849526]}},
{"type": "Feature", "id": "JkS5zoGYZxkiHsO1AOIeDMC38-U=", "properties": {"ref": "c19d1f0720fb47ed9aee4a4016a5ed85", "@spider": "farmacias_de_descuento_unión_mex_dpa", "addr:full": "Av. Oriente 2 Esq. Sur 3 S/N, Col. Centro, Orizaba, Orizaba, Veracruz, C.P. 94300", "addr:street": "Av. Oriente 2 Esq. Sur 3 S/N", "addr:city": "Orizaba", "addr:state": "Veracruz", "phones": {"Store": ["27 2725 5202"]}, "email": {"Customer Service": []}, "website": "https://www.farmaciasunion.com/sucursales.html", "operatingHours": {"Store": []}, "chain_id": "22318", "chain_name": "FARMACIAS DE DESCUENTO UNIÓN"}, "geometry": {"type": "Point", "coordinates": [-97.104228, 18.847826]}},
{"type": "Feature", "id": "8_7qX510gdKjrpjM10q7EJUwahU=", "properties": {"ref": "08a36a0c7cbc438885a4d7452d6b87a4", "@spider": "farmacias_de_descuento_unión_mex_dpa", "addr:full": "Calle Oriente 4 1191, Col. Centro, Orizaba, Orizaba, Veracruz, C.P. 94300", "addr:street": "Calle Oriente 4 1191", "addr:city": "Orizaba", "addr:state": "Veracruz", "phones": {"Store": ["27 2724 7731"]}, "email": {"Customer Service": []}, "website": "https://www.farmaciasunion.com/sucursales.html", "operatingHours": {"Store": []}, "chain_id": "22318", "chain_name": "FARMACIAS DE DESCUENTO UNIÓN"}, "geometry": {"type": "Point", "coordinates": [-97.094009, 18.850095]}},
{"type": "Feature", "id": "J-33aUYbaJ-KjaCvnJJ6LK1kq9c=", "properties": {"ref": "3279bc7810ff4d2a93f83850174f452e", "@spider": "farmacias_de_descuento_unión_mex_dpa", "addr:full": "Prolongacion de Norte 2 2510, Col. San Juan Bautista, Orizaba, Orizaba, Veracruz, C.P. 94310", "addr:street": "Prolongacion de Norte 2 2510", "addr:city": "Orizaba", "addr:state": "Veracruz", "phones": {"Store": ["27 2721 8520"]}, "email": {"Customer Service": []}, "website": "https://www.farmaciasunion.com/sucursales.html", "operatingHours": {"Store": []}, "chain_id": "22318", "chain_name": "FARMACIAS DE DESCUENTO UNIÓN"}, "geometry": {"type": "Point", "coordinates": [-97.113782, 18.868906]}},
{"type": "Feature", "id": "pWeuFYL0ahhbR8eTjw9CTveJs-0=", "properties": {"ref": "52e05b13b93c439ca8bf12bbf159d90e", "@spider": "farmacias_de_descuento_unión_mex_dpa", "addr:full": "Av. Oriente 9 612, Col. Centro, Orizaba, Orizaba, Veracruz, C.P. 94300", "addr:street": "Av. Oriente 9 612", "addr:city": "Orizaba", "addr:state": "Veracruz", "phones": {"Store": ["27 2725 0603"]}, "email": {"Customer Service": []}, "website": "https://www.farmaciasunion.com/sucursales.html", "operatingHours": {"Store": []}, "chain_id": "22318", "chain_name": "FARMACIAS DE DESCUENTO UNIÓN"}, "geometry": {"type": "Point", "coordinates": [-97.100972, 18.853747]}},
{"type": "Feature", "id": "j7SdtdnDP_MpSwCnzZG3sXZJbcs=", "properties": {"ref": "7ee93451a95740ac9868695632a6b3e2", "@spider": "farmacias_de_descuento_unión_mex_dpa", "addr:full": "Camino Nacional 386, Col. Ricardo Flores Magon, Río Blanco, Río Blanco, Veracruz, C.P. 94730", "addr:street": "Camino Nacional 386", "addr:city": "Río Blanco", "addr:state": "Veracruz", "phones": {"Store": ["27 2725 5192"]}, "email": {"Customer Service": []}, "website": "https://www.farmaciasunion.com/sucursales.html", "operatingHours": {"Store": []}, "chain_id": "22318", "chain_name": "FARMACIAS DE DESCUENTO UNIÓN"}, "geometry": {"type": "Point", "coordinates": [-97.116918, 18.839082]}},
{"type": "Feature", "id": "xN8mGjDC3I8fXiRtSHwzM4aDSbI=", "properties": {"ref": "f05716f94eb44e00859701ba5d1ec668", "@spider": "farmacias_de_descuento_unión_mex_dpa", "addr:full": "Lázaro Cárdenas 357 Lote 2 Mza 1, Col. Manlio Fabio Altamirano, Boca del Rio, Boca del Rio, Veracruz, C.P. 94296", "addr:street": "Lázaro Cárdenas 357 Lote 2 Mza 1", "addr:city": "Boca del Rio", "addr:state": "Veracruz", "phones": {"Store": ["22 9927 0980"]}, "email": {"Customer Service": []}, "website": "https://www.farmaciasunion.com/sucursales.html", "operatingHours": {"Store": []}, "chain_id": "22318", "chain_name": "FARMACIAS DE DESCUENTO UNIÓN"}, "geometry": {"type": "Point", "coordinates": [-96.128291, 19.148989]}},
{"type": "Feature", "id": "xoGMTtYMmTljZ_v5leYN9SPUmIY=", "properties": {"ref": "5425572aa0904c6f9bff39c1e5277f64", "@spider": "farmacias_de_descuento_unión_mex_dpa", "addr:full": "Calz. Costa Verde #077, Col. Fracc. Jardines de Virginia, Boca del Rio, Boca del Rio, Veracruz, C.P. 94294", "addr:street": "Calz. Costa Verde #077", "addr:city": "Boca del Rio", "addr:state": "Veracruz", "phones": {"Store": ["22 9921 1967"]}, "email": {"Customer Service": []}, "website": "https://www.farmaciasunion.com/sucursales.html", "operatingHours": {"Store": []}, "chain_id": "22318", "chain_name": "FARMACIAS DE DESCUENTO UNIÓN"}, "geometry": {"type": "Point", "coordinates": [-96.117109, 19.164884]}},
{"type": "Feature", "id": "VuNfcyWwdpuSaC0EEe5FiuHf46c=", "properties": {"ref": "cf2041f7ff764766bddef9b0d7dc75a2", "@spider": "farmacias_de_descuento_unión_mex_dpa", "addr:full": "Calle Ejercito Mexicano 542 Lote 3, Col. Benito Juárez, Boca del Rio, Boca del Rio, Veracruz, C.P. 94298", "addr:street": "Calle Ejercito Mexicano 542 Lote 3", "addr:city": "Boca del Rio", "addr:state": "Veracruz", "phones": {"Store": ["22 9130 0651"]}, "email": {"Customer Service": []}, "website": "https://www.farmaciasunion.com/sucursales.html", "operatingHours": {"Store": []}, "chain_id": "22318", "chain_name": "FARMACIAS DE DESCUENTO UNIÓN"}, "geometry": {"type": "Point", "coordinates": [-96.107954, 19.139442]}},
{"type": "Feature", "id": "63u921MYBSCgIl6cNjal6lyksrk=", "properties": {"ref": "d5b40aa82b2143559f98682a220f8cd6", "@spider": "farmacias_de_descuento_unión_mex_dpa", "addr:full": "Av. Urano 1073 y 1071, Col. Jardines de Virginia, Boca del Rio, Boca del Rio, Veracruz, C.P. 94294", "addr:street": "Av. Urano 1073 y 1071", "addr:city": "Boca del Rio", "addr:state": "Veracruz", "phones": {"Store": ["22 9927 2409"]}, "email": {"Customer Service": []}, "website": "https://www.farmaciasunion.com/sucursales.html", "operatingHours": {"Store": []}, "chain_id": "22318", "chain_name": "FARMACIAS DE DESCUENTO UNIÓN"}, "geometry": {"type": "Point", "coordinates": [-96.114289, 19.151416]}},
{"type": "Feature", "id": "C3wf0Hinq4CFrz9rko24WWOY3-g=", "properties": {"ref": "8093b4d2aa5349dba7572c1f3a5e25a4", "@spider": "farmacias_de_descuento_unión_mex_dpa", "addr:full": "16 de Septiembre 1662, Col. Ricardo Flores Magon, Veracruz, Veracruz, Veracruz, C.P. 91900", "addr:street": "16 de Septiembre 1662", "addr:city": "Veracruz", "addr:state": "Veracruz", "phones": {"Store": ["22 9931 2658"]}, "email": {"Customer Service": []}, "website": "https://www.farmaciasunion.com/sucursales.html", "operatingHours": {"Store": []}, "chain_id": "22318", "chain_name": "FARMACIAS DE DESCUENTO UNIÓN"}, "geometry": {"type": "Point", "coordinates": [-96.126003, 19.189372]}},
{"type": "Feature", "id": "1l1FGEedpTEowU_WawHN4SGh7oI=", "properties": {"ref": "12a4caffa59543b9a334eeba75163a1e", "@spider": "farmacias_de_descuento_unión_mex_dpa", "addr:full": "Av. George Washington 51, Reforma, Veracruz, Veracruz, Veracruz, C.P. 91919", "addr:street": "Av. George Washington 51", "addr:city": "Veracruz", "addr:state": "Veracruz", "phones": {"Store": ["229 1935 156"]}, "email": {"Customer Service": []}, "website": "https://www.farmaciasunion.com/sucursales.html", "operatingHours": {"Store": []}, "chain_id": "22318", "chain_name": "FARMACIAS DE DESCUENTO UNIÓN"}, "geometry": {"type": "Point", "coordinates": [-96.120394, 19.173774]}},
{"type": "Feature", "id": "N1X8jygpzt43q7I5ULkixAZPjq0=", "properties": {"ref": "97c6383527ce497abd9d662e35c6257d", "@spider": "farmacias_de_descuento_unión_mex_dpa", "addr:full": "Calz. Simon Bolivar 818, Col. Ignacio Zaragoza, Veracruz, Veracruz, Veracruz, C.P. 91910", "addr:street": "Calz. Simon Bolivar 818", "addr:city": "Veracruz", "addr:state": "Veracruz", "phones": {"Store": ["22 9935 9337"]}, "email": {"Customer Service": []}, "website": "https://www.farmaciasunion.com/sucursales.html", "operatingHours": {"Store": []}, "chain_id": "22318", "chain_name": "FARMACIAS DE DESCUENTO UNIÓN"}, "geometry": {"type": "Point", "coordinates": [-96.128286, 19.174546]}},
{"type": "Feature", "id": "R_5wksVW4DKYIWLn2slYaxClF50=", "properties": {"ref": "955eabee7aba4950a1e9fde17fc97532", "@spider": "farmacias_de_descuento_unión_mex_dpa", "addr:full": "Av. Prolongacion Salvador Diaz Miron # 4321 Local H, Col. del Maestro, Veracruz, Veracruz, Veracruz, C.P. 91920", "addr:street": "Av. Prolongacion Salvador Diaz Miron # 4321 Local H", "addr:city": "Veracruz", "addr:state": "Veracruz", "phones": {"Store": ["22 9922 9156"]}, "email": {"Customer Service": []}, "website": "https://www.farmaciasunion.com/sucursales.html", "operatingHours": {"Store": []}, "chain_id": "22318", "chain_name": "FARMACIAS DE DESCUENTO UNIÓN"}, "geometry": {"type": "Point", "coordinates": [-96.132263, 19.157224]}},
{"type": "Feature", "id": "A6SXTu1x_sfUVKAy3k_Ry4xuqoc=", "properties": {"ref": "67eb147d381748b39d430aac0b8403ff", "@spider": "farmacias_de_descuento_unión_mex_dpa", "addr:full": "España 438 B, Col. Reforma, Veracruz, Veracruz, Veracruz, C.P. 91919", "addr:street": "España 438 B", "addr:city": "Veracruz", "addr:state": "Veracruz", "phones": {"Store": ["22 9980 7394"]}, "email": {"Customer Service": []}, "website": "https://www.farmaciasunion.com/sucursales.html", "operatingHours": {"Store": []}, "chain_id": "22318", "chain_name": "FARMACIAS DE DESCUENTO UNIÓN"}, "geometry": {"type": "Point", "coordinates": [-96.125543, 19.170425]}},
{"type": "Feature", "id": "AqKEMi6HU0jNOgofq8dqI7qXTTk=", "properties": {"ref": "1708c135ca364080be64544c20bc132c", "@spider": "farmacias_de_descuento_unión_mex_dpa", "addr:full": "Av. Esteban Morales 1054, Col. Centro, Veracruz, Veracruz, Veracruz, C.P. 91700", "addr:street": "Av. Esteban Morales 1054", "addr:city": "Veracruz", "addr:state": "Veracruz", "phones": {"Store": ["22 9931 0588"]}, "email": {"Customer Service": []}, "website": "https://www.farmaciasunion.com/sucursales.html", "operatingHours": {"Store": []}, "chain_id": "22318", "chain_name": "FARMACIAS DE DESCUENTO UNIÓN"}, "geometry": {"type": "Point", "coordinates": [-96.139447, 19.195545]}},
{"type": "Feature", "id": "CZq-SI_C_ZVRw-GIntVx4NhAiHM=", "properties": {"ref": "11a2e867454f4228ab7a058fe3fdbc53", "@spider": "farmacias_de_descuento_unión_mex_dpa", "addr:full": "Mariano Matamoros S/N Local 54 y 55, Col. Los Pinos, Veracruz, Veracruz, Veracruz, C.P. 91870", "addr:street": "Mariano Matamoros S/N Local 54 y 55", "addr:city": "Veracruz", "addr:state": "Veracruz", "phones": {"Store": ["22 9165 1051"]}, "email": {"Customer Service": []}, "website": "https://www.farmaciasunion.com/sucursales.html", "operatingHours": {"Store": []}, "chain_id": "22318", "chain_name": "FARMACIAS DE DESCUENTO UNIÓN"}, "geometry": {"type": "Point", "coordinates": [-96.161713, 19.204177]}},
{"type": "Feature", "id": "LbqaNypD_P6QSeEdq0gX39Ao0yU=", "properties": {"ref": "9405b9b89d2345f992455ba75032f11f", "@spider": "farmacias_de_descuento_unión_mex_dpa", "addr:full": "Dr. Victor Sanchez Tapia 1680, Col. Río Medio, Veracruz, Veracruz, Veracruz, C.P. 91809", "addr:street": "Dr. Victor Sanchez Tapia 1680", "addr:city": "Veracruz", "addr:state": "Veracruz", "phones": {"Store": ["22 9198 0780"]}, "email": {"Customer Service": []}, "website": "https://www.farmaciasunion.com/sucursales.html", "operatingHours": {"Store": []}, "chain_id": "22318", "chain_name": "FARMACIAS DE DESCUENTO UNIÓN"}, "geometry": {"type": "Point", "coordinates": [-96.19479, 19.204159]}},
{"type": "Feature", "id": "DxTtjsm-1q2q2aVfD-YDXr4G-T0=", "properties": {"ref": "e3347029a7c041cda5b120a8ff48620a", "@spider": "farmacias_de_descuento_unión_mex_dpa", "addr:full": "Ricardo Flores Magon #3, Col. Centro, José Cardel, La Antigua, Veracruz, C.P. 91680", "addr:street": "Ricardo Flores Magon #3", "addr:city": "José Cardel", "addr:state": "Veracruz", "phones": {"Store": ["29 6962 0943"]}, "email": {"Customer Service": []}, "website": "https://www.farmaciasunion.com/sucursales.html", "operatingHours": {"Store": []}, "chain_id": "22318", "chain_name": "FARMACIAS DE DESCUENTO UNIÓN"}, "geometry": {"type": "Point", "coordinates": [-96.375836, 19.370826]}},
{"type": "Feature", "id": "lcS79Dqac67WIVQNYZnsMIWe4YU=", "properties": {"ref": "fa9d57fb4b3e4031b8daf1d2e40a1c59", "@spider": "farmacias_de_descuento_unión_mex_dpa", "addr:full": "Av. 20 de Noviembre 67, Col. Centro, Xalapa, Xalapa, Veracruz, C.P. 91000", "addr:street": "Av. 20 de Noviembre 67", "addr:city": "Xalapa", "addr:state": "Veracruz", "phones": {"Store": ["22 8815 0715"]}, "email": {"Customer Service": []}, "website": "https://www.farmaciasunion.com/sucursales.html", "operatingHours": {"Store": []}, "chain_id": "22318", "chain_name": "FARMACIAS DE DESCUENTO UNIÓN"}, "geometry": {"type": "Point", "coordinates": [-96.924812, 19.538812]}},
{"type": "Feature", "id": "yS_fyDkJWrJKaZ10BOlaxKZWhpg=", "properties": {"ref": "a303e505917040bfb41f660ec252321d", "@spider": "farmacias_de_descuento_unión_mex_dpa", "addr:full": "Blvd. Adolfo Ruiz Cortines 3224, Col. Unidad Magisterial, Xalapa, Xalapa, Veracruz, C.P. 91010", "addr:street": "Blvd. Adolfo Ruiz Cortines 3224", "addr:city": "Xalapa", "addr:state": "Veracruz", "phones": {"Store": ["22 8814 0414"]}, "email": {"Customer Service": []}, "website": "https://www.farmaciasunion.com/sucursales.html", "operatingHours": {"Store": []}, "chain_id": "22318", "chain_name": "FARMACIAS DE DESCUENTO UNIÓN"}, "geometry": {"type": "Point", "coordinates": [-96.935487, 19.550363]}},
{"type": "Feature", "id": "3LhagjZoGz2-61Nd7m5J3rdxhu0=", "properties": {"ref": "d35fecb947cb4829a8849b9413fa0888", "@spider": "farmacias_de_descuento_unión_mex_dpa", "addr:full": "Antonio Chedraui Caram #244, Col. Centro, Xalapa, Xalapa, Veracruz, C.P. 91180", "addr:street": "Antonio Chedraui Caram #244", "addr:city": "Xalapa", "addr:state": "Veracruz", "phones": {"Store": ["22 8814 5415"]}, "email": {"Customer Service": []}, "website": "https://www.farmaciasunion.com/sucursales.html", "operatingHours": {"Store": []}, "chain_id": "22318", "chain_name": "FARMACIAS DE DESCUENTO UNIÓN"}, "geometry": {"type": "Point", "coordinates": [-96.906649, 19.537215]}},
{"type": "Feature", "id": "J_sMFRGAXW9Ic1WRG8EKgke4fBg=", "properties": {"ref": "d291a73a69af43249c196631b1b1e1bd", "@spider": "farmacias_de_descuento_unión_mex_dpa", "addr:full": "Av. Atenas Veracruzana #88 , Col. Revolucion, Xalapa, Xalapa, Veracruz, C.P. 91050", "addr:street": "Av. Atenas Veracruzana #88 ", "addr:city": "Xalapa", "addr:state": "Veracruz", "phones": {"Store": ["22 8842 5032"]}, "email": {"Customer Service": []}, "website": "https://www.farmaciasunion.com/sucursales.html", "operatingHours": {"Store": []}, "chain_id": "22318", "chain_name": "FARMACIAS DE DESCUENTO UNIÓN"}, "geometry": {"type": "Point", "coordinates": [-96.917088, 19.56796]}},
{"type": "Feature", "id": "v10cCUZziHFwLZcHL0rf1B2ZOmA=", "properties": {"ref": "66e74fa38d90429cb75e4f59efb01c8c", "@spider": "farmacias_de_descuento_unión_mex_dpa", "addr:full": "Calle Sayago Sn Int 19, Col. Centro, Xalapa, Xalapa, Veracruz, C.P. 91000", "addr:street": "Calle Sayago Sn Int 19", "addr:city": "Xalapa", "addr:state": "Veracruz", "phones": {"Store": ["22 8812 0032"]}, "email": {"Customer Service": []}, "website": "https://www.farmaciasunion.com/sucursales.html", "operatingHours": {"Store": []}, "chain_id": "22318", "chain_name": "FARMACIAS DE DESCUENTO UNIÓN"}, "geometry": {"type": "Point", "coordinates": [-96.924238, 19.532791]}},
{"type": "Feature", "id": "a_WJ6fi6r-UaxbjpkqQyHH6VUM4=", "properties": {"ref": "18621eb12d18409089026d977fe567d0", "@spider": "farmacias_de_descuento_unión_mex_dpa", "addr:full": "Ernesto Ortiz Medina, Col. Fracc Veracruz, Xalapa, Xalapa, Veracruz, C.P. 91020", "addr:street": "Ernesto Ortiz Medina", "addr:city": "Xalapa", "addr:state": "Veracruz", "phones": {"Store": ["22 8688 3731"]}, "email": {"Customer Service": []}, "website": "https://www.farmaciasunion.com/sucursales.html", "operatingHours": {"Store": []}, "chain_id": "22318", "chain_name": "FARMACIAS DE DESCUENTO UNIÓN"}, "geometry": {"type": "Point", "coordinates": [-96.928774, 19.542099]}},
{"type": "Feature", "id": "zZ7GSdFbueSyEfsRdLcPv4Dlw-s=", "properties": {"ref": "bd8263b5f15b449383770a443f0f7389", "@spider": "farmacias_de_descuento_unión_mex_dpa", "addr:full": "Juan de La Luz Enríquez 415, Col. La Palma, Acayucan, Acayucan, Veracruz, C.P. 96056", "addr:street": "Juan de La Luz Enríquez 415", "addr:city": "Acayucan", "addr:state": "Veracruz", "phones": {"Store": ["92 4245 4297"]}, "email": {"Customer Service": []}, "website": "https://www.farmaciasunion.com/sucursales.html", "operatingHours": {"Store": []}, "chain_id": "22318", "chain_name": "FARMACIAS DE DESCUENTO UNIÓN"}, "geometry": {"type": "Point", "coordinates": [-94.917397, 17.952858]}},
{"type": "Feature", "id": "RDBgAZXar0gcd9TWYDP75-93J7o=", "properties": {"ref": "6024af667aba46718fcd841275310fe1", "@spider": "farmacias_de_descuento_unión_mex_dpa", "addr:full": "Hidalgo 36, Col. Centro, Acayucan, Acayucan, Veracruz, C.P. 96000", "addr:street": "Hidalgo 36", "addr:city": "Acayucan", "addr:state": "Veracruz", "phones": {"Store": ["92 4245 2594"]}, "email": {"Customer Service": []}, "website": "https://www.farmaciasunion.com/sucursales.html", "operatingHours": {"Store": []}, "chain_id": "22318", "chain_name": "FARMACIAS DE DESCUENTO UNIÓN"}, "geometry": {"type": "Point", "coordinates": [-94.916147, 17.949578]}},
{"type": "Feature", "id": "YeePJ5BTJKndTF6lWxdPhe_2rys=", "properties": {"ref": "33496e64ec49406d86ad60d7a976454b", "@spider": "farmacias_de_descuento_unión_mex_dpa", "addr:full": "Calle Victoria 33-A, Col. Centro, Acayucan, Acayucan, Veracruz, C.P. 96000", "addr:street": "Calle Victoria 33-A", "addr:city": "Acayucan", "addr:state": "Veracruz", "phones": {"Store": ["92 4245 2218"]}, "email": {"Customer Service": []}, "website": "https://www.farmaciasunion.com/sucursales.html", "operatingHours": {"Store": []}, "chain_id": "22318", "chain_name": "FARMACIAS DE DESCUENTO UNIÓN"}, "geometry": {"type": "Point", "coordinates": [-94.915012, 17.948657]}},
{"type": "Feature", "id": "eNCpLWhS9kmM2LAo7l-f1_8BuMs=", "properties": {"ref": "9019191d0cb545d19aeb834ab0c758b7", "@spider": "farmacias_de_descuento_unión_mex_dpa", "addr:full": "Guadalupe Victoria 7, Col. Centro, Acayucan, Acayucan, Veracruz, C.P. 96000", "addr:street": "Guadalupe Victoria 7", "addr:city": "Acayucan", "addr:state": "Veracruz", "phones": {"Store": ["92 4245 8524"]}, "email": {"Customer Service": []}, "website": "https://www.farmaciasunion.com/sucursales.html", "operatingHours": {"Store": []}, "chain_id": "22318", "chain_name": "FARMACIAS DE DESCUENTO UNIÓN"}, "geometry": {"type": "Point", "coordinates": [-94.915006, 17.948667]}},
{"type": "Feature", "id": "9kx8b2vfVEKzeq8Ej8981SjBLqc=", "properties": {"ref": "7d261f9ab7aa45ae886d54f22b537f77", "@spider": "farmacias_de_descuento_unión_mex_dpa", "addr:full": "Hidalgo 28, Col. Centro, Acayucan, Acayucan, Veracruz, C.P. 96000", "addr:street": "Hidalgo 28", "addr:city": "Acayucan", "addr:state": "Veracruz", "phones": {"Store": ["92 4245 8975"]}, "email": {"Customer Service": []}, "website": "https://www.farmaciasunion.com/sucursales.html", "operatingHours": {"Store": []}, "chain_id": "22318", "chain_name": "FARMACIAS DE DESCUENTO UNIÓN"}, "geometry": {"type": "Point", "coordinates": [-94.907373, 17.949078]}},
{"type": "Feature", "id": "s3TC59e8HbSE5bNXwYY8YHOxs1M=", "properties": {"ref": "9efe2117be6d433692b0303dd04f058e", "@spider": "farmacias_de_descuento_unión_mex_dpa", "addr:full": "Carretera Costera del Golfo S/N, Col. Zapotal, Acayucan, Acayucan, Veracruz, C.P. 96039", "addr:street": "Carretera Costera del Golfo S/N", "addr:city": "Acayucan", "addr:state": "Veracruz", "phones": {"Store": ["92 4245 2037"]}, "email": {"Customer Service": []}, "website": "https://www.farmaciasunion.com/sucursales.html", "operatingHours": {"Store": []}, "chain_id": "22318", "chain_name": "FARMACIAS DE DESCUENTO UNIÓN"}, "geometry": {"type": "Point", "coordinates": [-94.908524, 17.955541]}},
{"type": "Feature", "id": "7OhjYzalS5QDQuz1_eBeSb6VQfg=", "properties": {"ref": "c1c256430f4743d9b0f0f7ec2e19d4fa", "@spider": "farmacias_de_descuento_unión_mex_dpa", "addr:full": "María Boettiger S/N, Col. Centro, Catemaco, Catemaco, Veracruz, C.P. 95870", "addr:street": "María Boettiger S/N", "addr:city": "Catemaco", "addr:state": "Veracruz", "phones": {"Store": ["29 4943 2059"]}, "email": {"Customer Service": []}, "website": "https://www.farmaciasunion.com/sucursales.html", "operatingHours": {"Store": []}, "chain_id": "22318", "chain_name": "FARMACIAS DE DESCUENTO UNIÓN"}, "geometry": {"type": "Point", "coordinates": [-95.110352, 18.418311]}},
{"type": "Feature", "id": "eViwXQEbjk5dKmY8SwONlNzUhF0=", "properties": {"ref": "0f71febd7fb447e290d2be25ab767088", "@spider": "farmacias_de_descuento_unión_mex_dpa", "addr:full": "Raul Sandoval 73, Col. Centro, Isla, Ciudad Isla, Veracruz, C.P. 95641", "addr:street": "Raul Sandoval 73", "addr:city": "Isla", "addr:state": "Veracruz", "phones": {"Store": ["28 3874 3250"]}, "email": {"Customer Service": []}, "website": "https://www.farmaciasunion.com/sucursales.html", "operatingHours": {"Store": []}, "chain_id": "22318", "chain_name": "FARMACIAS DE DESCUENTO UNIÓN"}, "geometry": {"type": "Point", "coordinates": [-95.529593, 18.025806]}},
{"type": "Feature", "id": "bmYBE_ayb_vpBCdl4lS0wn1Q55k=", "properties": {"ref": "017ce76fb5e64617aad79756b000e196", "@spider": "farmacias_de_descuento_unión_mex_dpa", "addr:full": "Calle 16 de Septiembre 1303, Col. Centro, Jaltipan, Jaltipan, Veracruz, C.P. 96200", "addr:street": "Calle 16 de Septiembre 1303", "addr:city": "Jaltipan", "addr:state": "Veracruz", "phones": {"Store": ["92 2264 4752"]}, "email": {"Customer Service": []}, "website": "https://www.farmaciasunion.com/sucursales.html", "operatingHours": {"Store": []}, "chain_id": "22318", "chain_name": "FARMACIAS DE DESCUENTO UNIÓN"}, "geometry": {"type": "Point", "coordinates": [-94.716936, 17.964433]}},
{"type": "Feature", "id": "UXXpxHxrP4TteN_opaMGF7zMl9k=", "properties": {"ref": "fe0addb78c024fcc82c05a6655a08621", "@spider": "farmacias_de_descuento_unión_mex_dpa", "addr:full": "Morelos 902-E, Col. Centro, Jaltipan, Jaltipan, Veracruz, C.P. 96280", "addr:street": "Morelos 902-E", "addr:city": "Jaltipan", "addr:state": "Veracruz", "phones": {"Store": ["92 2264 7965"]}, "email": {"Customer Service": []}, "website": "https://www.farmaciasunion.com/sucursales.html", "operatingHours": {"Store": []}, "chain_id": "22318", "chain_name": "FARMACIAS DE DESCUENTO UNIÓN"}, "geometry": {"type": "Point", "coordinates": [-94.712326, 17.962035]}},
{"type": "Feature", "id": "cwZ8N8vfiwuxa-gH-2ZOXpMyC8Y=", "properties": {"ref": "c9573527aee44b458762f262dee1093d", "@spider": "farmacias_de_descuento_unión_mex_dpa", "addr:full": "Av. Benito Juárez 575 Bis , Col. Centro, San Andrés Tuxtla, San Andrés Tuxtla, Veracruz, C.P. 95700", "addr:street": "Av. Benito Juárez 575 Bis ", "addr:city": "San Andrés Tuxtla", "addr:state": "Veracruz", "phones": {"Store": ["29 4942 7906"]}, "email": {"Customer Service": []}, "website": "https://www.farmaciasunion.com/sucursales.html", "operatingHours": {"Store": []}, "chain_id": "22318", "chain_name": "FARMACIAS DE DESCUENTO UNIÓN"}, "geometry": {"type": "Point", "coordinates": [-95.216884, 18.450983]}},
{"type": "Feature", "id": "8i6Qy7QjVqGbQfhgML_APzEVmDk=", "properties": {"ref": "99f9d040962a40d6a72461cb3fd51af1", "@spider": "farmacias_de_descuento_unión_mex_dpa", "addr:full": "Calle Zamora 111L-11 y 12, Col. Centro, Coatzacoalcos, Coatzacoalcos, Veracruz, C.P. 96380", "addr:street": "Calle Zamora 111L-11 y 12", "addr:city": "Coatzacoalcos", "addr:state": "Veracruz", "phones": {"Store": ["92 1216 5854"]}, "email": {"Customer Service": []}, "website": "https://www.farmaciasunion.com/sucursales.html", "operatingHours": {"Store": []}, "chain_id": "22318", "chain_name": "FARMACIAS DE DESCUENTO UNIÓN"}, "geometry": {"type": "Point", "coordinates": [-94.406396, 18.150018]}},
{"type": "Feature", "id": "JgZRxBp4mvLk-gt3VNNNZ0rAnIc=", "properties": {"ref": "86144ea6d7244a9abf2e5fe5ff50993c", "@spider": "farmacias_de_descuento_unión_mex_dpa", "addr:full": "Carranza 204, Col. Centro, Coatzacoalcos, Coatzacoalcos, Veracruz, C.P. 96400", "addr:street": "Carranza 204", "addr:city": "Coatzacoalcos", "addr:state": "Veracruz", "phones": {"Store": ["92 1212 9053"]}, "email": {"Customer Service": []}, "website": "https://www.farmaciasunion.com/sucursales.html", "operatingHours": {"Store": []}, "chain_id": "22318", "chain_name": "FARMACIAS DE DESCUENTO UNIÓN"}, "geometry": {"type": "Point", "coordinates": [-94.41553, 18.145832]}},
{"type": "Feature", "id": "N-ySvCzq1JY1YzbllYjtU0QHdIE=", "properties": {"ref": "06756c47b35448f1aef7a8edd5c35fae", "@spider": "farmacias_de_descuento_unión_mex_dpa", "addr:full": "Boca del Jaguar # 101 , Col. Ciudad Olmeca, Coatzacoalcos, Coatzacoalcos, Veracruz, C.P. 96535", "addr:street": "Boca del Jaguar # 101 ", "addr:city": "Coatzacoalcos", "addr:state": "Veracruz", "phones": {"Store": ["92 1210 2006"]}, "email": {"Customer Service": []}, "website": "https://www.farmaciasunion.com/sucursales.html", "operatingHours": {"Store": []}, "chain_id": "22318", "chain_name": "FARMACIAS DE DESCUENTO UNIÓN"}, "geometry": {"type": "Point", "coordinates": [-94.551868, 18.151191]}},
{"type": "Feature", "id": "pFi2S8fv8CBhjcjidLuKru92KEk=", "properties": {"ref": "4e45334834ff4e468db8069bb00b65a8", "@spider": "farmacias_de_descuento_unión_mex_dpa", "addr:full": "Corregidora 201-B, Col. Centro, Coatzacoalcos, Coatzacoalcos, Veracruz, C.P. 96400", "addr:street": "Corregidora 201-B", "addr:city": "Coatzacoalcos", "addr:state": "Veracruz", "phones": {"Store": ["92 1212 9853"]}, "email": {"Customer Service": []}, "website": "https://www.farmaciasunion.com/sucursales.html", "operatingHours": {"Store": []}, "chain_id": "22318", "chain_name": "FARMACIAS DE DESCUENTO UNIÓN"}, "geometry": {"type": "Point", "coordinates": [-94.412684, 18.146079]}},
{"type": "Feature", "id": "I-KdgfPJUeRzAucI07AXByhlQ8E=", "properties": {"ref": "521b524c378f4e15a215d3305be4c322", "@spider": "farmacias_de_descuento_unión_mex_dpa", "addr:full": "Av. Universidad Km 12+050, Col. Lomas de Barrillas, Coatzacoalcos, Coatzacoalcos, Veracruz, C.P. 96535", "addr:street": "Av. Universidad Km 12+050", "addr:city": "Coatzacoalcos", "addr:state": "Veracruz", "phones": {"Store": ["92 1213 1974"]}, "email": {"Customer Service": []}, "website": "https://www.farmaciasunion.com/sucursales.html", "operatingHours": {"Store": []}, "chain_id": "22318", "chain_name": "FARMACIAS DE DESCUENTO UNIÓN"}, "geometry": {"type": "Point", "coordinates": [-94.524001, 18.139044]}},
{"type": "Feature", "id": "Et7ecKWnBnEOUlR-BQ99ab4TyHg=", "properties": {"ref": "01a1d36f93f74c828e372a191fc1f819", "@spider": "farmacias_de_descuento_unión_mex_dpa", "addr:full": "Av. Universidad S/N, Col. Palmitas, Coatzacoalcos, Coatzacoalcos, Veracruz, C.P. 86566", "addr:street": "Av. Universidad S/N", "addr:city": "Coatzacoalcos", "addr:state": "Veracruz", "phones": {"Store": ["92 1213 5065"]}, "email": {"Customer Service": []}, "website": "https://www.farmaciasunion.com/sucursales.html", "operatingHours": {"Store": []}, "chain_id": "22318", "chain_name": "FARMACIAS DE DESCUENTO UNIÓN"}, "geometry": {"type": "Point", "coordinates": [-94.46342, 18.139261]}},
{"type": "Feature", "id": "SK1NeH2roXdvGx6YHWwG7asjNSM=", "properties": {"ref": "b4c67b211a584241ac94923ca53b9f23", "@spider": "farmacias_de_descuento_unión_mex_dpa", "addr:full": "López Mateos 100, Col. Petrolera , Coatzacoalcos, Coatzacoalcos, Veracruz, C.P. 96500", "addr:street": "López Mateos 100", "addr:city": "Coatzacoalcos", "addr:state": "Veracruz", "phones": {"Store": ["92 1210 0004"]}, "email": {"Customer Service": []}, "website": "https://www.farmaciasunion.com/sucursales.html", "operatingHours": {"Store": []}, "chain_id": "22318", "chain_name": "FARMACIAS DE DESCUENTO UNIÓN"}, "geometry": {"type": "Point", "coordinates": [-94.435872, 18.146997]}},
{"type": "Feature", "id": "n8YGDZQNRFsJ7Z0DdH1yW-jA8KY=", "properties": {"ref": "fe203adf44594c4485d6058445941f0a", "@spider": "farmacias_de_descuento_unión_mex_dpa", "addr:full": "Quevedo 2515, Col. Puerto México, Coatzacoalcos, Coatzacoalcos, Veracruz, C.P. 96510", "addr:street": "Quevedo 2515", "addr:city": "Coatzacoalcos", "addr:state": "Veracruz", "phones": {"Store": ["92 1217 7818"]}, "email": {"Customer Service": []}, "website": "https://www.farmaciasunion.com/sucursales.html", "operatingHours": {"Store": []}, "chain_id": "22318", "chain_name": "FARMACIAS DE DESCUENTO UNIÓN"}, "geometry": {"type": "Point", "coordinates": [-94.450571, 18.146537]}},
{"type": "Feature", "id": "nmNgr7SWxhFQdPsvEWLAAroI0Ns=", "properties": {"ref": "cdde56d5471b446c84c3a8a28453c3d5", "@spider": "farmacias_de_descuento_unión_mex_dpa", "addr:full": "Av. Universidad Km. 9 S/N, Col. Tesoro, Coatzacoalcos, Coatzacoalcos, Veracruz, C.P. 96536", "addr:street": "Av. Universidad Km. 9 S/N", "addr:city": "Coatzacoalcos", "addr:state": "Veracruz", "phones": {"Store": ["92 1210 4040"]}, "email": {"Customer Service": []}, "website": "https://www.farmaciasunion.com/sucursales.html", "operatingHours": {"Store": []}, "chain_id": "22318", "chain_name": "FARMACIAS DE DESCUENTO UNIÓN"}, "geometry": {"type": "Point", "coordinates": [-94.48968, 18.139035]}},
{"type": "Feature", "id": "kW7NUDGeeg7-bSm-qvvkiT3iWCA=", "properties": {"ref": "b838ac10c7a24f3a9d236e50d6fc180c", "@spider": "farmacias_de_descuento_unión_mex_dpa", "addr:full": "Zaragoza 531, Col. Centro, Coatzacoalcos, Coatzacoalcos, Veracruz, C.P. 96400", "addr:street": "Zaragoza 531", "addr:city": "Coatzacoalcos", "addr:state": "Veracruz", "phones": {"Store": ["92 1213 1931"]}, "email": {"Customer Service": []}, "website": "https://www.farmaciasunion.com/sucursales.html", "operatingHours": {"Store": []}, "chain_id": "22318", "chain_name": "FARMACIAS DE DESCUENTO UNIÓN"}, "geometry": {"type": "Point", "coordinates": [-94.419699, 18.146211]}},
{"type": "Feature", "id": "i98qtW_Pl9kgE6jTwkVmOQR63lA=", "properties": {"ref": "d72b23181c444d5fb8c4adce415b12ee", "@spider": "farmacias_de_descuento_unión_mex_dpa", "addr:full": "Av. Obrera 244, Col. Centro, Agua Dulce, Agua Dulce, Veracruz, C.P. 96600", "addr:street": "Av. Obrera 244", "addr:city": "Agua Dulce", "addr:state": "Veracruz", "phones": {"Store": ["92 3233 0054"]}, "email": {"Customer Service": []}, "website": "https://www.farmaciasunion.com/sucursales.html", "operatingHours": {"Store": []}, "chain_id": "22318", "chain_name": "FARMACIAS DE DESCUENTO UNIÓN"}, "geometry": {"type": "Point", "coordinates": [-94.141027, 18.143539]}},
{"type": "Feature", "id": "e2zdEGyoZfjZ0ZflFjE6yryDpLM=", "properties": {"ref": "5d6f2d559e4744afb446e8b86282f200", "@spider": "farmacias_de_descuento_unión_mex_dpa", "addr:full": "Francisco I Madero S/N, Col. Centro, Agua Dulce, Agua Dulce, Veracruz, C.P. 96600", "addr:street": "Francisco I Madero S/N", "addr:city": "Agua Dulce", "addr:state": "Veracruz", "phones": {"Store": ["92 3233 5981, 99 3190 3537"]}, "email": {"Customer Service": []}, "website": "https://www.farmaciasunion.com/sucursales.html", "operatingHours": {"Store": []}, "chain_id": "22318", "chain_name": "FARMACIAS DE DESCUENTO UNIÓN"}, "geometry": {"type": "Point", "coordinates": [-94.141479, 18.141705]}},
{"type": "Feature", "id": "nZB9W2SLD6fX7_x9CCY4wGqVnaw=", "properties": {"ref": "5101386819274c55a5c9d49fda9fbd0d", "@spider": "farmacias_de_descuento_unión_mex_dpa", "addr:full": "Av. Transístmica 129 Local 4B, Col. Benito Juárez, Agua Dulce, Agua Dulce, Veracruz, C.P. 96680", "addr:street": "Av. Transístmica 129 Local 4B", "addr:city": "Agua Dulce", "addr:state": "Veracruz", "phones": {"Store": ["92 3233 6033, 92 2159 2579"]}, "email": {"Customer Service": []}, "website": "https://www.farmaciasunion.com/sucursales.html", "operatingHours": {"Store": []}, "chain_id": "22318", "chain_name": "FARMACIAS DE DESCUENTO UNIÓN"}, "geometry": {"type": "Point", "coordinates": [-94.146097, 18.124905]}},
{"type": "Feature", "id": "T8UxlgRjI882OsygrB9RMkOmUH0=", "properties": {"ref": "9f9bc1990ca84c11b60bd84b1962d336", "@spider": "farmacias_de_descuento_unión_mex_dpa", "addr:full": "Av. Ignacio Zaragoza 300-6, Col. Centro, Coatzacoalcos, Coatzacoalcos, Veracruz, C.P. 96400", "addr:street": "Av. Ignacio Zaragoza 300-6", "addr:city": "Coatzacoalcos", "addr:state": "Veracruz", "phones": {"Store": ["92 1212 8880"]}, "email": {"Customer Service": []}, "website": "https://www.farmaciasunion.com/sucursales.html", "operatingHours": {"Store": []}, "chain_id": "22318", "chain_name": "FARMACIAS DE DESCUENTO UNIÓN"}, "geometry": {"type": "Point", "coordinates": [-94.414052, 18.147547]}},
{"type": "Feature", "id": "W4y-AejbxpbedTTlObAPg-o1_kA=", "properties": {"ref": "191944b13ceb4eb0b1a5c56def512d7f", "@spider": "farmacias_de_descuento_unión_mex_dpa", "addr:full": "Francisco Sarabia S/N Depto-D, Col. Las Americas, Coatzacoalcos, Coatzacoalcos, Veracruz, C.P. 96480", "addr:street": "Francisco Sarabia S/N Depto-D", "addr:city": "Coatzacoalcos", "addr:state": "Veracruz", "phones": {"Store": ["92 1214 1978, 99 3190 3516"]}, "email": {"Customer Service": []}, "website": "https://www.farmaciasunion.com/sucursales.html", "operatingHours": {"Store": []}, "chain_id": "22318", "chain_name": "FARMACIAS DE DESCUENTO UNIÓN"}, "geometry": {"type": "Point", "coordinates": [-94.431789, 18.125067]}},
{"type": "Feature", "id": "8tCGYmzOFqe9BCBZOFqsz96loJo=", "properties": {"ref": "c0cc7e9704c346f6afacdd860221cbfd", "@spider": "farmacias_de_descuento_unión_mex_dpa", "addr:full": "Av. Juan Osorio López 600, Col. Francisco Villa, Coatzacoalcos, Coatzacoalcos, Veracruz, C.P. 96566", "addr:street": "Av. Juan Osorio López 600", "addr:city": "Coatzacoalcos", "addr:state": "Veracruz", "phones": {"Store": ["92 1217 2967"]}, "email": {"Customer Service": []}, "website": "https://www.farmaciasunion.com/sucursales.html", "operatingHours": {"Store": []}, "chain_id": "22318", "chain_name": "FARMACIAS DE DESCUENTO UNIÓN"}, "geometry": {"type": "Point", "coordinates": [-94.463103, 18.123634]}},
{"type": "Feature", "id": "5yEPGAPBrjd-pfgSQlxUY-yRLME=", "properties": {"ref": "ffeffc6751924ef5a90743cb24f26693", "@spider": "farmacias_de_descuento_unión_mex_dpa", "addr:full": "Av. Independencia S/N, Col. Benito Juárez Norte, Coatzacoalcos, Coatzacoalcos, Veracruz, C.P. 96576", "addr:street": "Av. Independencia S/N", "addr:city": "Coatzacoalcos", "addr:state": "Veracruz", "phones": {"Store": ["92 1215 2758, 99 3190 3522"]}, "email": {"Customer Service": []}, "website": "https://www.farmaciasunion.com/sucursales.html", "operatingHours": {"Store": []}, "chain_id": "22318", "chain_name": "FARMACIAS DE DESCUENTO UNIÓN"}, "geometry": {"type": "Point", "coordinates": [-94.434623, 18.140464]}},
{"type": "Feature", "id": "ayx6d3qRNOI3_D01jpKXTvF1Fn8=", "properties": {"ref": "ae33009667ce42dfa43345f406f94fb7", "@spider": "farmacias_de_descuento_unión_mex_dpa", "addr:full": "Avenida Benito Juárez 1123, Col. Centro, Coatzacoalcos, Coatzacoalcos, Veracruz, C.P. 96400", "addr:street": "Avenida Benito Juárez 1123", "addr:city": "Coatzacoalcos", "addr:state": "Veracruz", "phones": {"Store": ["92 1214 7029, 99 3190 3533"]}, "email": {"Customer Service": []}, "website": "https://www.farmaciasunion.com/sucursales.html", "operatingHours": {"Store": []}, "chain_id": "22318", "chain_name": "FARMACIAS DE DESCUENTO UNIÓN"}, "geometry": {"type": "Point", "coordinates": [-94.42977, 18.143812]}},
{"type": "Feature", "id": "YIxv4wzjp0DFIa4c7PhafeFyETE=", "properties": {"ref": "4f5a2d7b7955467aae43ad05164d45be", "@spider": "farmacias_de_descuento_unión_mex_dpa", "addr:full": "20 de Noviembre 103, Col. Centro, Las Choapas, Las Choapas, Veracruz, C.P. 96980", "addr:street": "20 de Noviembre 103", "addr:city": "Las Choapas", "addr:state": "Veracruz", "phones": {"Store": ["92 3237 3368"]}, "email": {"Customer Service": []}, "website": "https://www.farmaciasunion.com/sucursales.html", "operatingHours": {"Store": []}, "chain_id": "22318", "chain_name": "FARMACIAS DE DESCUENTO UNIÓN"}, "geometry": {"type": "Point", "coordinates": [-94.091507, 17.907767]}},
{"type": "Feature", "id": "Rfl8ww9dlNUg3Phje2TaUxa0NfE=", "properties": {"ref": "5a8f283dbb4c4b4b89a875a420424213", "@spider": "farmacias_de_descuento_unión_mex_dpa", "addr:full": "20 de Noviembre 1230, Col. La Sabana, Las Choapas, Las Choapas, Veracruz, C.P. 96980", "addr:street": "20 de Noviembre 1230", "addr:city": "Las Choapas", "addr:state": "Veracruz", "phones": {"Store": ["92 3237 3904"]}, "email": {"Customer Service": []}, "website": "https://www.farmaciasunion.com/sucursales.html", "operatingHours": {"Store": []}, "chain_id": "22318", "chain_name": "FARMACIAS DE DESCUENTO UNIÓN"}, "geometry": {"type": "Point", "coordinates": [-94.104335, 17.893646]}},
{"type": "Feature", "id": "TUkalUCuumNn7wSd2SHXK8UP16A=", "properties": {"ref": "a48723d3ead44e67ba21402013857231", "@spider": "farmacias_de_descuento_unión_mex_dpa", "addr:full": "Benito Juárez 32, Col. Centro, Nanchital, Nanchital, Veracruz, C.P. 96360", "addr:street": "Benito Juárez 32", "addr:city": "Nanchital", "addr:state": "Veracruz", "phones": {"Store": ["92 1216 4063"]}, "email": {"Customer Service": []}, "website": "https://www.farmaciasunion.com/sucursales.html", "operatingHours": {"Store": []}, "chain_id": "22318", "chain_name": "FARMACIAS DE DESCUENTO UNIÓN"}, "geometry": {"type": "Point", "coordinates": [-94.411003, 18.070711]}},
{"type": "Feature", "id": "8yoURR8HUOISKk987PojlZngwBM=", "properties": {"ref": "e004ee37c16b47e4bd487a99bd7716b2", "@spider": "farmacias_de_descuento_unión_mex_dpa", "addr:full": "López Mateos 1, Col. Centro, Cosoleacaque, Cosoleacaque, Veracruz, C.P. 96340", "addr:street": "López Mateos 1", "addr:city": "Cosoleacaque", "addr:state": "Veracruz", "phones": {"Store": ["92 2264 9100"]}, "email": {"Customer Service": []}, "website": "https://www.farmaciasunion.com/sucursales.html", "operatingHours": {"Store": []}, "chain_id": "22318", "chain_name": "FARMACIAS DE DESCUENTO UNIÓN"}, "geometry": {"type": "Point", "coordinates": [-94.638191, 17.99505]}},
{"type": "Feature", "id": "LjAdycHmzRdPJBhtpIDLY2p_q1U=", "properties": {"ref": "a01aaec516d64c96aa9324ef36430c17", "@spider": "farmacias_de_descuento_unión_mex_dpa", "addr:full": "Miguel Hidalgo 129, Col. Centro, Cosoleacaque, Cosoleacaque, Veracruz, C.P. 96340", "addr:street": "Miguel Hidalgo 129", "addr:city": "Cosoleacaque", "addr:state": "Veracruz", "phones": {"Store": ["92 2264 1867"]}, "email": {"Customer Service": []}, "website": "https://www.farmaciasunion.com/sucursales.html", "operatingHours": {"Store": []}, "chain_id": "22318", "chain_name": "FARMACIAS DE DESCUENTO UNIÓN"}, "geometry": {"type": "Point", "coordinates": [-94.638787, 17.995244]}},
{"type": "Feature", "id": "-MVjbl5K5vpIRVygQdkKdo2wT3Y=", "properties": {"ref": "1e051c3fa8d24dd6ad4a2daf3a5242f6", "@spider": "farmacias_de_descuento_unión_mex_dpa", "addr:full": "Guerrero 82, Col. Centro, Cosoleacaque, Cosoleacaque, Veracruz, C.P. 96340", "addr:street": "Guerrero 82", "addr:city": "Cosoleacaque", "addr:state": "Veracruz", "phones": {"Store": ["92 2264 1630"]}, "email": {"Customer Service": []}, "website": "https://www.farmaciasunion.com/sucursales.html", "operatingHours": {"Store": []}, "chain_id": "22318", "chain_name": "FARMACIAS DE DESCUENTO UNIÓN"}, "geometry": {"type": "Point", "coordinates": [-94.639132, 17.997355]}},
{"type": "Feature", "id": "-3xKVjLarVFxwePmubRJcQBa1vI=", "properties": {"ref": "4a1cf167bb484cb99ed7db2bf50d7926", "@spider": "farmacias_de_descuento_unión_mex_dpa", "addr:full": "Boulevard Instituto 9, Col. 7 de Mayo, Minatitlan, Cosoleacaque, Veracruz, C.P. 96730", "addr:street": "Boulevard Instituto 9", "addr:city": "Minatitlan", "addr:state": "Veracruz", "phones": {"Store": ["99 3190 3552"]}, "email": {"Customer Service": []}, "website": "https://www.farmaciasunion.com/sucursales.html", "operatingHours": {"Store": []}, "chain_id": "22318", "chain_name": "FARMACIAS DE DESCUENTO UNIÓN"}, "geometry": {"type": "Point", "coordinates": [-94.551337, 18.00856]}},
{"type": "Feature", "id": "Vkr6R7RbfKkxA6DMSnx4UGP5tYU=", "properties": {"ref": "a1d53ca779054a6b99a3cce9f01a33e1", "@spider": "farmacias_de_descuento_unión_mex_dpa", "addr:full": "Pedro de Gante S/N, Col. Chapala, Minatitlan, Minatitlan, Veracruz, C.P. 96737", "addr:street": "Pedro de Gante S/N", "addr:city": "Minatitlan", "addr:state": "Veracruz", "phones": {"Store": ["92 2225 8041"]}, "email": {"Customer Service": []}, "website": "https://www.farmaciasunion.com/sucursales.html", "operatingHours": {"Store": []}, "chain_id": "22318", "chain_name": "FARMACIAS DE DESCUENTO UNIÓN"}, "geometry": {"type": "Point", "coordinates": [-94.560748, 17.992011]}},
{"type": "Feature", "id": "eEGtNPZ_Y1ZISUC53PD3G9DsGvw=", "properties": {"ref": "bfb5c9137df24ac38c42d7b333ad79cd", "@spider": "farmacias_de_descuento_unión_mex_dpa", "addr:full": "Iturbide 14, Col. Centro, Minatitlan, Minatitlan, Veracruz, C.P. 96700", "addr:street": "Iturbide 14", "addr:city": "Minatitlan", "addr:state": "Veracruz", "phones": {"Store": ["92 2223 9652"]}, "email": {"Customer Service": []}, "website": "https://www.farmaciasunion.com/sucursales.html", "operatingHours": {"Store": []}, "chain_id": "22318", "chain_name": "FARMACIAS DE DESCUENTO UNIÓN"}, "geometry": {"type": "Point", "coordinates": [-94.542679, 17.980133]}},
{"type": "Feature", "id": "tzQDsLKfgJZgmKyrNxtXdUXjnKc=", "properties": {"ref": "70d6bdecafcb476bbe4dc867f2fa85c3", "@spider": "farmacias_de_descuento_unión_mex_dpa", "addr:full": "Justo Sierra 146, Col. Adolfo Ruiz Cortines, Minatitlan, Minatitlan, Veracruz, C.P. 96790", "addr:street": "Justo Sierra 146", "addr:city": "Minatitlan", "addr:state": "Veracruz", "phones": {"Store": ["92 2222 9968"]}, "email": {"Customer Service": []}, "website": "https://www.farmaciasunion.com/sucursales.html", "operatingHours": {"Store": []}, "chain_id": "22318", "chain_name": "FARMACIAS DE DESCUENTO UNIÓN"}, "geometry": {"type": "Point", "coordinates": [-94.560674, 17.98909]}},
{"type": "Feature", "id": "oabwATQ310CSQywMJV7FzmrExHE=", "properties": {"ref": "4f015345692649c48867eda4f4add56d", "@spider": "farmacias_de_descuento_unión_mex_dpa", "addr:full": "Miguel Hidalgo 112, Col. Centro, Minatitlan, Minatitlan, Veracruz, C.P. 96700", "addr:street": "Miguel Hidalgo 112", "addr:city": "Minatitlan", "addr:state": "Veracruz", "phones": {"Store": ["92 2225 8639"]}, "email": {"Customer Service": []}, "website": "https://www.farmaciasunion.com/sucursales.html", "operatingHours": {"Store": []}, "chain_id": "22318", "chain_name": "FARMACIAS DE DESCUENTO UNIÓN"}, "geometry": {"type": "Point", "coordinates": [-94.545133, 17.985614]}},
{"type": "Feature", "id": "PsKJ0UD3AGbcVQUIQjTpmefn85Q=", "properties": {"ref": "5ca37f7e58ec4a978e5fa75054c1f69f", "@spider": "farmacias_de_descuento_unión_mex_dpa", "addr:full": "Hidalgo 56, Col. Centro, Minatitlan, Minatitlan, Veracruz, C.P. 96700", "addr:street": "Hidalgo 56", "addr:city": "Minatitlan", "addr:state": "Veracruz", "phones": {"Store": ["92 2223 9844"]}, "email": {"Customer Service": []}, "website": "https://www.farmaciasunion.com/sucursales.html", "operatingHours": {"Store": []}, "chain_id": "22318", "chain_name": "FARMACIAS DE DESCUENTO UNIÓN"}, "geometry": {"type": "Point", "coordinates": [-94.542779, 17.982797]}},
{"type": "Feature", "id": "joeIHZeVwBpwKpXShgxEdo-KU38=", "properties": {"ref": "4a4883971d92492b86743f004e734d7d", "@spider": "farmacias_de_descuento_unión_mex_dpa", "addr:full": "Dante Delgado 34 Local 25Y 26, Col. Insurgente, Minatitlan, Minatitlan, Veracruz, C.P. 96710", "addr:street": "Dante Delgado 34 Local 25Y 26", "addr:city": "Minatitlan", "addr:state": "Veracruz", "phones": {"Store": ["92 2224 3987"]}, "email": {"Customer Service": []}, "website": "https://www.farmaciasunion.com/sucursales.html", "operatingHours": {"Store": []}, "chain_id": "22318", "chain_name": "FARMACIAS DE DESCUENTO UNIÓN"}, "geometry": {"type": "Point", "coordinates": [-94.579431, 18.001757]}},
{"type": "Feature", "id": "eeCv1v8YzF4rzAhOs5IowjVddjA=", "properties": {"ref": "650d77f4aaf14c02a2c04e9a8c7527a0", "@spider": "farmacias_de_descuento_unión_mex_dpa", "addr:full": "18 de Octubre 64, Col. Santa Clara, Minatitlan, Minatitlan, Veracruz, C.P. 96730", "addr:street": "18 de Octubre 64", "addr:city": "Minatitlan", "addr:state": "Veracruz", "phones": {"Store": ["92 2222 9861"]}, "email": {"Customer Service": []}, "website": "https://www.farmaciasunion.com/sucursales.html", "operatingHours": {"Store": []}, "chain_id": "22318", "chain_name": "FARMACIAS DE DESCUENTO UNIÓN"}, "geometry": {"type": "Point", "coordinates": [-94.550906, 17.992375]}},
{"type": "Feature", "id": "WK6tQ1J1kLTRsnJTwJ7lHFTW19Y=", "properties": {"ref": "17703f43ff1f45858546fbe033ff2680", "@spider": "farmacias_de_descuento_unión_mex_dpa", "addr:full": "Justo Sierra 34, Col. Centro, Minatitlan, Minatitlan, Veracruz, C.P. 96700", "addr:street": "Justo Sierra 34", "addr:city": "Minatitlan", "addr:state": "Veracruz", "phones": {"Store": ["92 2223 7249"]}, "email": {"Customer Service": []}, "website": "https://www.farmaciasunion.com/sucursales.html", "operatingHours": {"Store": []}, "chain_id": "22318", "chain_name": "FARMACIAS DE DESCUENTO UNIÓN"}, "geometry": {"type": "Point", "coordinates": [-94.548462, 17.986761]}},
{"type": "Feature", "id": "OLM3Q3nPNWlqzItPN6yvB8s0nZM=", "properties": {"ref": "be179edee6e34bf1aff909a73727deaa", "@spider": "farmacias_de_descuento_unión_mex_dpa", "addr:full": "Av. Instituto Tecnologico S/N, Col. Las Fuentes, Minatitlan, Minatitlan, Veracruz, C.P. 96720", "addr:street": "Av. Instituto Tecnologico S/N", "addr:city": "Minatitlan", "addr:state": "Veracruz", "phones": {"Store": ["92 2223 9550"]}, "email": {"Customer Service": []}, "website": "https://www.farmaciasunion.com/sucursales.html", "operatingHours": {"Store": []}, "chain_id": "22318", "chain_name": "FARMACIAS DE DESCUENTO UNIÓN"}, "geometry": {"type": "Point", "coordinates": [-94.575581, 17.99243]}},
{"type": "Feature", "id": "0ds2msmmSvsix4HCf7ipEnP7bl4=", "properties": {"ref": "d30209cd727b43d883c7ce54c335266b", "@spider": "farmacias_de_descuento_unión_mex_dpa", "addr:full": "Calle Gral. Plutarco Elias Calles S/N, Col. Playa del Rosario, Villa Playas del Rosario, Centro, Tabasco, C.P. 86291", "addr:street": "Calle Gral. Plutarco Elias Calles S/N", "addr:city": "Villa Playas del Rosario", "addr:state": "Tabasco", "phones": {"Store": ["99 3338 2468"]}, "email": {"Customer Service": []}, "website": "https://www.farmaciasunion.com/sucursales.html", "operatingHours": {"Store": []}, "chain_id": "22318", "chain_name": "FARMACIAS DE DESCUENTO UNIÓN"}, "geometry": {"type": "Point", "coordinates": [-92.931042, 17.852093]}},
{"type": "Feature", "id": "k_0L6NXr2wRd3rapCkRAN6M4PEU=", "properties": {"ref": "ac4de8ab2d7f4efc90ce2b6a773a143a", "@spider": "farmacias_de_descuento_unión_mex_dpa", "addr:full": "16 de Septiembre 213, Col. Primero de Mayo, Villahermosa, Centro, Tabasco, C.P. 86190", "addr:street": "16 de Septiembre 213", "addr:city": "Villahermosa", "addr:state": "Tabasco", "phones": {"Store": ["99 3312 0794"]}, "email": {"Customer Service": []}, "website": "https://www.farmaciasunion.com/sucursales.html", "operatingHours": {"Store": []}, "chain_id": "22318", "chain_name": "FARMACIAS DE DESCUENTO UNIÓN"}, "geometry": {"type": "Point", "coordinates": [-92.936499, 17.974006]}},
{"type": "Feature", "id": "wTdrFajI7osZr860twrw7Dk-Juo=", "properties": {"ref": "e714452f332d47fdb542b2929350f5ad", "@spider": "farmacias_de_descuento_unión_mex_dpa", "addr:full": "Av. 27 de Febrero S/N, Col. Atasta de Serra, Villahermosa, Centro, Tabasco, C.P. 86100", "addr:street": "Av. 27 de Febrero S/N", "addr:city": "Villahermosa", "addr:state": "Tabasco", "phones": {"Store": ["99 3354 0425"]}, "email": {"Customer Service": []}, "website": "https://www.farmaciasunion.com/sucursales.html", "operatingHours": {"Store": []}, "chain_id": "22318", "chain_name": "FARMACIAS DE DESCUENTO UNIÓN"}, "geometry": {"type": "Point", "coordinates": [-92.948691, 17.984324]}},
{"type": "Feature", "id": "Oxa8-2hFT2wuX4Rd5tCKxOp5m_U=", "properties": {"ref": "098b16cefbda4fe89417bdb2a5ef8c68", "@spider": "farmacias_de_descuento_unión_mex_dpa", "addr:full": "Av. Maraton S/N, Col. Atasta de Serra, Villahermosa, Centro, Tabasco, C.P. 86100", "addr:street": "Av. Maraton S/N", "addr:city": "Villahermosa", "addr:state": "Tabasco", "phones": {"Store": ["99 3351 0226"]}, "email": {"Customer Service": []}, "website": "https://www.farmaciasunion.com/sucursales.html", "operatingHours": {"Store": []}, "chain_id": "22318", "chain_name": "FARMACIAS DE DESCUENTO UNIÓN"}, "geometry": {"type": "Point", "coordinates": [-92.944912, 17.974375]}},
{"type": "Feature", "id": "iY4N94KnPveuUtX1WZ1ODmgz9Ao=", "properties": {"ref": "245514bfdf4a4e32ac4edfaec84f2104", "@spider": "farmacias_de_descuento_unión_mex_dpa", "addr:full": "Av. Paseoa Usumacinta S/N , Col. Guayabal, Villahermosa, Centro, Tabasco, C.P. 86090", "addr:street": "Av. Paseoa Usumacinta S/N ", "addr:city": "Villahermosa", "addr:state": "Tabasco", "phones": {"Store": ["99 3315 1499"]}, "email": {"Customer Service": []}, "website": "https://www.farmaciasunion.com/sucursales.html", "operatingHours": {"Store": []}, "chain_id": "22318", "chain_name": "FARMACIAS DE DESCUENTO UNIÓN"}, "geometry": {"type": "Point", "coordinates": [-92.927019, 17.974248]}},
{"type": "Feature", "id": "FLNEPpaUXuMke4G-wSI_yBUzWgg=", "properties": {"ref": "69ad717865ff444b9586c78097d5833d", "@spider": "farmacias_de_descuento_unión_mex_dpa", "addr:full": "Av. Gregorio Méndez 3239, Col. Atasta, Villahermosa, Centro, Tabasco, C.P. 86100", "addr:street": "Av. Gregorio Méndez 3239", "addr:city": "Villahermosa", "addr:state": "Tabasco", "phones": {"Store": ["99 3351 6210"]}, "email": {"Customer Service": []}, "website": "https://www.farmaciasunion.com/sucursales.html", "operatingHours": {"Store": []}, "chain_id": "22318", "chain_name": "FARMACIAS DE DESCUENTO UNIÓN"}, "geometry": {"type": "Point", "coordinates": [-92.952848, 17.975895]}},
{"type": "Feature", "id": "DlnFC_eYyJBjkwB7n3GclW2lZtQ=", "properties": {"ref": "f8d0a132e4314578a6dbab71fc85353d", "@spider": "farmacias_de_descuento_unión_mex_dpa", "addr:full": "Av. Gregorio Méndez 3223 A, Col. Atasta, Villahermosa, Centro, Tabasco, C.P. 86100", "addr:street": "Av. Gregorio Méndez 3223 A", "addr:city": "Villahermosa", "addr:state": "Tabasco", "phones": {"Store": ["99 3354 9275"]}, "email": {"Customer Service": []}, "website": "https://www.farmaciasunion.com/sucursales.html", "operatingHours": {"Store": []}, "chain_id": "22318", "chain_name": "FARMACIAS DE DESCUENTO UNIÓN"}, "geometry": {"type": "Point", "coordinates": [-92.952465, 17.976485]}},
{"type": "Feature", "id": "ywY5RzhVOJ6_qgAeKIV1b2HE4W4=", "properties": {"ref": "5a446fc205a8476d9cfe7e39ee332518", "@spider": "farmacias_de_descuento_unión_mex_dpa", "addr:full": "Carretera Villahermosa-Boqueron Km 1 S/N, Col. Ixtacomitan 1A Sección, Villahermosa, Centro, Tabasco, C.P. 86143", "addr:street": "Carretera Villahermosa-Boqueron Km 1 S/N", "addr:city": "Villahermosa", "addr:state": "Tabasco", "phones": {"Store": ["99 3161 1662"]}, "email": {"Customer Service": []}, "website": "https://www.farmaciasunion.com/sucursales.html", "operatingHours": {"Store": []}, "chain_id": "22318", "chain_name": "FARMACIAS DE DESCUENTO UNIÓN"}, "geometry": {"type": "Point", "coordinates": [-92.966592, 17.959666]}},
{"type": "Feature", "id": "gTjv-ZKdVd1YIOBFiAv82louMbs=", "properties": {"ref": "5ee49e34acc44dd8923e7d098c16566c", "@spider": "farmacias_de_descuento_unión_mex_dpa", "addr:full": "Carretera A La Isla Km 15 S/N, Col. Carlos A. Madrazo, Villahermosa, Centro, Tabasco, C.P. 86110", "addr:street": "Carretera A La Isla Km 15 S/N", "addr:city": "Villahermosa", "addr:state": "Tabasco", "phones": {"Store": ["99 3141 2964"]}, "email": {"Customer Service": []}, "website": "https://www.farmaciasunion.com/sucursales.html", "operatingHours": {"Store": []}, "chain_id": "22318", "chain_name": "FARMACIAS DE DESCUENTO UNIÓN"}, "geometry": {"type": "Point", "coordinates": [-92.986715, 17.978715]}},
{"type": "Feature", "id": "zNRtTP12DAbhhVwvF4MXa9hURTQ=", "properties": {"ref": "5d9882bf58c141bea1df68e177961d66", "@spider": "farmacias_de_descuento_unión_mex_dpa", "addr:full": "Calle1 #353 Local A, Col. Miguel Hidalgo, Villahermosa, Centro, Tabasco, C.P. 96126", "addr:street": "Calle1 #353 Local A", "addr:city": "Villahermosa", "addr:state": "Tabasco", "phones": {"Store": ["99 3141 3252"]}, "email": {"Customer Service": []}, "website": "https://www.farmaciasunion.com/sucursales.html", "operatingHours": {"Store": []}, "chain_id": "22318", "chain_name": "FARMACIAS DE DESCUENTO UNIÓN"}, "geometry": {"type": "Point", "coordinates": [-92.986072, 17.977373]}},
{"type": "Feature", "id": "iVp2qFNsjBa95pKVxp8tUYpnkDI=", "properties": {"ref": "8c0fa605daba4e76965ec8a8d72e89a9", "@spider": "farmacias_de_descuento_unión_mex_dpa", "addr:full": "Av. Gregorio Méndez 405, Col. Centro, Villahermosa, Centro, Tabasco, C.P. 86000", "addr:street": "Av. Gregorio Méndez 405", "addr:city": "Villahermosa", "addr:state": "Tabasco", "phones": {"Store": ["99 3314 5634"]}, "email": {"Customer Service": []}, "website": "https://www.farmaciasunion.com/sucursales.html", "operatingHours": {"Store": []}, "chain_id": "22318", "chain_name": "FARMACIAS DE DESCUENTO UNIÓN"}, "geometry": {"type": "Point", "coordinates": [-92.917498, 17.992497]}},
{"type": "Feature", "id": "Tc_-BMUcdb40yyk5ry_1TUZBPW4=", "properties": {"ref": "9021568d393d46f798ebdaf88b28a7db", "@spider": "farmacias_de_descuento_unión_mex_dpa", "addr:full": "Calle Paseo de La Sierra #109 , Col. Reforma, Villahermosa, Centro, Tabasco, C.P. 86000", "addr:street": "Calle Paseo de La Sierra #109 ", "addr:city": "Villahermosa", "addr:state": "Tabasco", "phones": {"Store": ["99 3354 3921"]}, "email": {"Customer Service": []}, "website": "https://www.farmaciasunion.com/sucursales.html", "operatingHours": {"Store": []}, "chain_id": "22318", "chain_name": "FARMACIAS DE DESCUENTO UNIÓN"}, "geometry": {"type": "Point", "coordinates": [-92.929859, 17.979034]}},
{"type": "Feature", "id": "tdbr7A0SZCvQD922pLcABoMJQ08=", "properties": {"ref": "e71944fc18d04447b3d89e20ef72b183", "@spider": "farmacias_de_descuento_unión_mex_dpa", "addr:full": "Av. Quintín Arauz 901 L-2 y 3, Col. Atasta, Villahermosa, Centro, Tabasco, C.P. 86100", "addr:street": "Av. Quintín Arauz 901 L-2 y 3", "addr:city": "Villahermosa", "addr:state": "Tabasco", "phones": {"Store": ["99 3313 9570"]}, "email": {"Customer Service": []}, "website": "https://www.farmaciasunion.com/sucursales.html", "operatingHours": {"Store": []}, "chain_id": "22318", "chain_name": "FARMACIAS DE DESCUENTO UNIÓN"}, "geometry": {"type": "Point", "coordinates": [-92.941542, 17.980094]}},
{"type": "Feature", "id": "W_r1Y4TTSLrLb2kdkrOkbbq1a50=", "properties": {"ref": "1e159f47f20e44b38ee52f89bbc01dda", "@spider": "farmacias_de_descuento_unión_mex_dpa", "addr:full": "Carretera Villahermosa-Reforma Km. 0500, Col. Río Viejo 1Ra Sección, Villahermosa, Centro, Tabasco, C.P. 86127", "addr:street": "Carretera Villahermosa-Reforma Km. 0500", "addr:city": "Villahermosa", "addr:state": "Tabasco", "phones": {"Store": ["99 3380 0472"]}, "email": {"Customer Service": []}, "website": "https://www.farmaciasunion.com/sucursales.html", "operatingHours": {"Store": []}, "chain_id": "22318", "chain_name": "FARMACIAS DE DESCUENTO UNIÓN"}, "geometry": {"type": "Point", "coordinates": [-92.975606, 17.96812]}},
{"type": "Feature", "id": "BXj8PY6ORTbyIN_e_9QeU4eb_E0=", "properties": {"ref": "2fa7cb9ee6c74e03911a83d870c5f22b", "@spider": "farmacias_de_descuento_unión_mex_dpa", "addr:full": "Hidalgo 410, Col. Tamulte, Villahermosa, Centro, Tabasco, C.P. 86150", "addr:street": "Hidalgo 410", "addr:city": "Villahermosa", "addr:state": "Tabasco", "phones": {"Store": ["99 3351 4325"]}, "email": {"Customer Service": []}, "website": "https://www.farmaciasunion.com/sucursales.html", "operatingHours": {"Store": []}, "chain_id": "22318", "chain_name": "FARMACIAS DE DESCUENTO UNIÓN"}, "geometry": {"type": "Point", "coordinates": [-92.957934, 17.971504]}},
{"type": "Feature", "id": "JLeXsvJ1sWJD7BzL53zZndzOJTY=", "properties": {"ref": "fe2afa1f28254005ab36c0ffc58ab814", "@spider": "farmacias_de_descuento_unión_mex_dpa", "addr:full": "Av. Chontalpa No. 35 , Col. Centro, Villa Benito Juárez, Cárdenas, Tabasco, C.P. 86480", "addr:street": "Av. Chontalpa No. 35 ", "addr:city": "Villa Benito Juárez", "addr:state": "Tabasco", "phones": {"Store": ["92 3232 4071"]}, "email": {"Customer Service": []}, "website": "https://www.farmaciasunion.com/sucursales.html", "operatingHours": {"Store": []}, "chain_id": "22318", "chain_name": "FARMACIAS DE DESCUENTO UNIÓN"}, "geometry": {"type": "Point", "coordinates": [-93.907634, 18.176538]}},
{"type": "Feature", "id": "GlBorV7wJxz6Ir5okEjQh1r5ZvA=", "properties": {"ref": "a51b083b25f9404dafe57b40187c8be5", "@spider": "farmacias_de_descuento_unión_mex_dpa", "addr:full": "Av. Lázaro Cárdenas L-1,2,3 y 4, Col. Centro, Cárdenas, Cárdenas, Tabasco, C.P. 86500", "addr:street": "Av. Lázaro Cárdenas L-1", "addr:city": "3 y 4", "addr:state": "Tabasco", "phones": {"Store": ["93 7322 6387"]}, "email": {"Customer Service": []}, "website": "https://www.farmaciasunion.com/sucursales.html", "operatingHours": {"Store": []}, "chain_id": "22318", "chain_name": "FARMACIAS DE DESCUENTO UNIÓN"}, "geometry": {"type": "Point", "coordinates": [-93.37896, 17.986763]}},
{"type": "Feature", "id": "QUA_GueJRWF9mQvZGuncGyIt3uU=", "properties": {"ref": "dc2896c1f96e464d947f409c0d8ee5a6", "@spider": "farmacias_de_descuento_unión_mex_dpa", "addr:full": "Abrahan Bandala 510, Col. Centro, Cárdenas, Cárdenas, Tabasco, C.P. 86751", "addr:street": "Abrahan Bandala 510", "addr:city": "Cárdenas", "addr:state": "Tabasco", "phones": {"Store": ["93 7372 5190"]}, "email": {"Customer Service": []}, "website": "https://www.farmaciasunion.com/sucursales.html", "operatingHours": {"Store": []}, "chain_id": "22318", "chain_name": "FARMACIAS DE DESCUENTO UNIÓN"}, "geometry": {"type": "Point", "coordinates": [-93.381901, 17.990478]}},
{"type": "Feature", "id": "u5VjYc5EIdnAPjbM3o096I3zcmM=", "properties": {"ref": "8539f167a0f245378e7c3e136e9fb843", "@spider": "farmacias_de_descuento_unión_mex_dpa", "addr:full": "Central Loc-5, Col. Pueblo Nuevo, Cárdenas, Cárdenas, Tabasco, C.P. 86500", "addr:street": "Central Loc-5", "addr:city": "Cárdenas", "addr:state": "Tabasco", "phones": {"Store": ["93 7372 9199"]}, "email": {"Customer Service": []}, "website": "https://www.farmaciasunion.com/sucursales.html", "operatingHours": {"Store": []}, "chain_id": "22318", "chain_name": "FARMACIAS DE DESCUENTO UNIÓN"}, "geometry": {"type": "Point", "coordinates": [-93.384726, 17.990577]}},
{"type": "Feature", "id": "8q1_HMQ5b22DjoBlqkEfRqxp-QA=", "properties": {"ref": "39db66c3110b4f11ba72fb89651d4f9c", "@spider": "farmacias_de_descuento_unión_mex_dpa", "addr:full": "Benito Juárez 238, Col. Centro, Cárdenas, Cárdenas, Tabasco, C.P. 86500", "addr:street": "Benito Juárez 238", "addr:city": "Cárdenas", "addr:state": "Tabasco", "phones": {"Store": ["93 7372 4426"]}, "email": {"Customer Service": []}, "website": "https://www.farmaciasunion.com/sucursales.html", "operatingHours": {"Store": []}, "chain_id": "22318", "chain_name": "FARMACIAS DE DESCUENTO UNIÓN"}, "geometry": {"type": "Point", "coordinates": [-93.375257, 17.996064]}},
{"type": "Feature", "id": "WeBcg5Tj8oPyZ1UshAr4G8oAOKc=", "properties": {"ref": "f681273e256e4e66b76ff9196ad2e7fc", "@spider": "farmacias_de_descuento_unión_mex_dpa", "addr:full": "L. Adriano y Lázaro Cárdenas 208, Col. Centro, Cárdenas, Cárdenas, Tabasco, C.P. 86500", "addr:street": "L. Adriano y Lázaro Cárdenas 208", "addr:city": "Cárdenas", "addr:state": "Tabasco", "phones": {"Store": ["93 7372 3392"]}, "email": {"Customer Service": []}, "website": "https://www.farmaciasunion.com/sucursales.html", "operatingHours": {"Store": []}, "chain_id": "22318", "chain_name": "FARMACIAS DE DESCUENTO UNIÓN"}, "geometry": {"type": "Point", "coordinates": [-93.378238, 17.992545]}},
{"type": "Feature", "id": "dPjMTzqWuHA0awy_K2ngpQzD0Kg=", "properties": {"ref": "fc9d3153735144f79bcfee2c6d1d44be", "@spider": "farmacias_de_descuento_unión_mex_dpa", "addr:full": "Morelos 125, Col. Centro, Cárdenas, Cárdenas, Tabasco, C.P. 86500", "addr:street": "Morelos 125", "addr:city": "Cárdenas", "addr:state": "Tabasco", "phones": {"Store": ["93 7372 1720"]}, "email": {"Customer Service": []}, "website": "https://www.farmaciasunion.com/sucursales.html", "operatingHours": {"Store": []}, "chain_id": "22318", "chain_name": "FARMACIAS DE DESCUENTO UNIÓN"}, "geometry": {"type": "Point", "coordinates": [-93.375902, 17.990929]}},
{"type": "Feature", "id": "g4xZ4U95k9tJuf7znv5QJrpEsAU=", "properties": {"ref": "6a2b1448e62540ddac11973300886a4b", "@spider": "farmacias_de_descuento_unión_mex_dpa", "addr:full": "Plaza Hidalgo 114, Col. Centro, Cárdenas, Cárdenas, Tabasco, C.P. 86500", "addr:street": "Plaza Hidalgo 114", "addr:city": "Cárdenas", "addr:state": "Tabasco", "phones": {"Store": ["93 7372 0078"]}, "email": {"Customer Service": []}, "website": "https://www.farmaciasunion.com/sucursales.html", "operatingHours": {"Store": []}, "chain_id": "22318", "chain_name": "FARMACIAS DE DESCUENTO UNIÓN"}, "geometry": {"type": "Point", "coordinates": [-93.37675, 17.989369]}},
{"type": "Feature", "id": "ro_A9zOeYH02j09f1MsrWO8GLMY=", "properties": {"ref": "0e3b08cfed084a269197db578a5bbd9c", "@spider": "farmacias_de_descuento_unión_mex_dpa", "addr:full": "16 de Septiembre Esq. Pedro C. Colorado S/N, Col. Villa Chontalpa , Chontalpa, Huimanguillo, Tabasco, C.P. 86440", "addr:street": "16 de Septiembre Esq. Pedro C. Colorado S/N", "addr:city": "Chontalpa", "addr:state": "Tabasco", "phones": {"Store": ["91 7371 0203"]}, "email": {"Customer Service": []}, "website": "https://www.farmaciasunion.com/sucursales.html", "operatingHours": {"Store": []}, "chain_id": "22318", "chain_name": "FARMACIAS DE DESCUENTO UNIÓN"}, "geometry": {"type": "Point", "coordinates": [-93.47897, 17.666079]}},
{"type": "Feature", "id": "QD-aHyzrPUDxPgtgocQjLMnrG14=", "properties": {"ref": "439f5e85762f4d98a7f2e8cc4565f97d", "@spider": "farmacias_de_descuento_unión_mex_dpa", "addr:full": "Rafael Martínez de Escobar 73, Col. Centro, Huimanguillo, Huimanguillo, Tabasco, C.P. 86400", "addr:street": "Rafael Martínez de Escobar 73", "addr:city": "Huimanguillo", "addr:state": "Tabasco", "phones": {"Store": ["91 7375 2903"]}, "email": {"Customer Service": []}, "website": "https://www.farmaciasunion.com/sucursales.html", "operatingHours": {"Store": []}, "chain_id": "22318", "chain_name": "FARMACIAS DE DESCUENTO UNIÓN"}, "geometry": {"type": "Point", "coordinates": [-93.391869, 17.832857]}},
{"type": "Feature", "id": "eKHTJP--H2pnTsuAwlWPwJcVSTc=", "properties": {"ref": "47148912b9844c86a9811d5ee6d5c6c8", "@spider": "farmacias_de_descuento_unión_mex_dpa", "addr:full": "Zaragoza 125, Col. Centro, Huimanguillo, Huimanguillo, Tabasco, C.P. 86400", "addr:street": "Zaragoza 125", "addr:city": "Huimanguillo", "addr:state": "Tabasco", "phones": {"Store": ["91 7375 1306"]}, "email": {"Customer Service": []}, "website": "https://www.farmaciasunion.com/sucursales.html", "operatingHours": {"Store": []}, "chain_id": "22318", "chain_name": "FARMACIAS DE DESCUENTO UNIÓN"}, "geometry": {"type": "Point", "coordinates": [-93.396072, 17.830067]}},
{"type": "Feature", "id": "ibhzYDz4k2EkiiO8WXTY9TP3Z7k=", "properties": {"ref": "91af66d8732e4a02898aa358870fd767", "@spider": "farmacias_de_descuento_unión_mex_dpa", "addr:full": "Calle Juárez 101, Col. Centro, Huimanguillo, Huimanguillo, Tabasco, C.P. 86400", "addr:street": "Calle Juárez 101", "addr:city": "Huimanguillo", "addr:state": "Tabasco", "phones": {"Store": ["91 7375 1001"]}, "email": {"Customer Service": []}, "website": "https://www.farmaciasunion.com/sucursales.html", "operatingHours": {"Store": []}, "chain_id": "22318", "chain_name": "FARMACIAS DE DESCUENTO UNIÓN"}, "geometry": {"type": "Point", "coordinates": [-93.392298, 17.834586]}},
{"type": "Feature", "id": "gKMkzu2nKM_3JMPXTIoV_4qhOO4=", "properties": {"ref": "bc0625f71be24030942b319459d20247", "@spider": "farmacias_de_descuento_unión_mex_dpa", "addr:full": "Juárez 156, Col. Centro, La Venta, Huimanguillo, Tabasco, C.P. 86417", "addr:street": "Juárez 156", "addr:city": "La Venta", "addr:state": "Tabasco", "phones": {"Store": ["92 3232 0673"]}, "email": {"Customer Service": []}, "website": "https://www.farmaciasunion.com/sucursales.html", "operatingHours": {"Store": []}, "chain_id": "22318", "chain_name": "FARMACIAS DE DESCUENTO UNIÓN"}, "geometry": {"type": "Point", "coordinates": [-94.047044, 18.098998]}},
{"type": "Feature", "id": "TV_wsiFYdnwezGmKGd3Oh2Z16K8=", "properties": {"ref": "81c3177e4d5d401aa02be9b0c55d9ae5", "@spider": "farmacias_de_descuento_unión_mex_dpa", "addr:full": "Miguel Orrico de Los Llanos 310, Col. Villa Ocuiltzapotlán, Ocuiltzapotlán, Centro, Tabasco, C.P. 86270", "addr:street": "Miguel Orrico de Los Llanos 310", "addr:city": "Ocuiltzapotlán", "addr:state": "Tabasco", "phones": {"Store": ["99 3158 4963"]}, "email": {"Customer Service": []}, "website": "https://www.farmaciasunion.com/sucursales.html", "operatingHours": {"Store": []}, "chain_id": "22318", "chain_name": "FARMACIAS DE DESCUENTO UNIÓN"}, "geometry": {"type": "Point", "coordinates": [-92.863667, 18.135457]}},
{"type": "Feature", "id": "MFDS-18tSiJNECurx18Z9lzhau8=", "properties": {"ref": "f61286d4cccf48bdb5ce4eccfea5f1e0", "@spider": "farmacias_de_descuento_unión_mex_dpa", "addr:full": "Miguel Orrico de Los Llanos 409, Col. Villa Ocuiltzapotlán, Ocuiltzapotlán, Centro, Tabasco, C.P. 86270", "addr:street": "Miguel Orrico de Los Llanos 409", "addr:city": "Ocuiltzapotlán", "addr:state": "Tabasco", "phones": {"Store": ["99 3321 0028"]}, "email": {"Customer Service": []}, "website": "https://www.farmaciasunion.com/sucursales.html", "operatingHours": {"Store": []}, "chain_id": "22318", "chain_name": "FARMACIAS DE DESCUENTO UNIÓN"}, "geometry": {"type": "Point", "coordinates": [-92.868388, 18.136027]}},
{"type": "Feature", "id": "za9lfEbnqcMKRH74RQEzAS23JBg=", "properties": {"ref": "6d91609c3c1c4fa0b2109b374390aa76", "@spider": "farmacias_de_descuento_unión_mex_dpa", "addr:full": "Carret. Villahermosa-Teapa Km 11, Col. Villa Parrilla, Villa Parrilla, Centro, Tabasco, C.P. 86280", "addr:street": "Carret. Villahermosa-Teapa Km 11", "addr:city": "Villa Parrilla", "addr:state": "Tabasco", "phones": {"Store": ["99 3204 1401"]}, "email": {"Customer Service": []}, "website": "https://www.farmaciasunion.com/sucursales.html", "operatingHours": {"Store": []}, "chain_id": "22318", "chain_name": "FARMACIAS DE DESCUENTO UNIÓN"}, "geometry": {"type": "Point", "coordinates": [-92.915456, 17.913191]}},
{"type": "Feature", "id": "idYJcC-cHcSVDlTBXYVClecdBO0=", "properties": {"ref": "b6db74a82e8a4f42a1900c99e75e18c4", "@spider": "farmacias_de_descuento_unión_mex_dpa", "addr:full": "Carlos A. Madrazo Becerra, Col. Villa Parrilla, Villa Parrilla, Centro, Tabasco, C.P. 86280", "addr:street": "Carlos A. Madrazo Becerra", "addr:city": "Villa Parrilla", "addr:state": "Tabasco", "phones": {"Store": ["99 3688 3197"]}, "email": {"Customer Service": []}, "website": "https://www.farmaciasunion.com/sucursales.html", "operatingHours": {"Store": []}, "chain_id": "22318", "chain_name": "FARMACIAS DE DESCUENTO UNIÓN"}, "geometry": {"type": "Point", "coordinates": [-92.917445, 17.913087]}},
{"type": "Feature", "id": "kxGk28krU3F4JwWE4MxYwA5S_T8=", "properties": {"ref": "57bcf07cb01743d5948d461bf722833c", "@spider": "farmacias_de_descuento_unión_mex_dpa", "addr:full": "Av. Fco. J. Mina 203 L-2, Col. Centro, Villahermosa, Centro, Tabasco, C.P. 86000", "addr:street": "Av. Fco. J. Mina 203 L-2", "addr:city": "Villahermosa", "addr:state": "Tabasco", "phones": {"Store": ["99 3314 2001"]}, "email": {"Customer Service": []}, "website": "https://www.farmaciasunion.com/sucursales.html", "operatingHours": {"Store": []}, "chain_id": "22318", "chain_name": "FARMACIAS DE DESCUENTO UNIÓN"}, "geometry": {"type": "Point", "coordinates": [-92.921157, 17.996157]}},
{"type": "Feature", "id": "5MuojnZCl0biPU8U8TCxma8-1N4=", "properties": {"ref": "2be4fd3b59dd498da801ef158afb88ae", "@spider": "farmacias_de_descuento_unión_mex_dpa", "addr:full": "Av. Universidad Esq. Macayo S/N, Col. José María Pino Suárez, Villahermosa, Centro, Tabasco, C.P. 86029", "addr:street": "Av. Universidad Esq. Macayo S/N", "addr:city": "Villahermosa", "addr:state": "Tabasco", "phones": {"Store": ["99 3357 2314"]}, "email": {"Customer Service": []}, "website": "https://www.farmaciasunion.com/sucursales.html", "operatingHours": {"Store": []}, "chain_id": "22318", "chain_name": "FARMACIAS DE DESCUENTO UNIÓN"}, "geometry": {"type": "Point", "coordinates": [-92.921033, 18.01039]}},
{"type": "Feature", "id": "11wi_pQyyS2GzE-X5tMKiQo0DPQ=", "properties": {"ref": "ce8fb9f08e7d44d0bcb9977cca42466b", "@spider": "farmacias_de_descuento_unión_mex_dpa", "addr:full": "Aquiles Calderón Marchena, Col. Gaviotas, Villahermosa, Centro, Tabasco, C.P. 86090", "addr:street": "Aquiles Calderón Marchena", "addr:city": "Villahermosa", "addr:state": "Tabasco", "phones": {"Store": ["99 3207 2640"]}, "email": {"Customer Service": []}, "website": "https://www.farmaciasunion.com/sucursales.html", "operatingHours": {"Store": []}, "chain_id": "22318", "chain_name": "FARMACIAS DE DESCUENTO UNIÓN"}, "geometry": {"type": "Point", "coordinates": [-92.914971, 17.977227]}},
{"type": "Feature", "id": "oPFFxbv9iQlWfF53WwGMzZOPzcQ=", "properties": {"ref": "51afcce050ec481480322dfa740579e4", "@spider": "farmacias_de_descuento_unión_mex_dpa", "addr:full": "Calle Zacatenco S/N, Col. Infonavit Cd. Industrial, Villahermosa, Centro, Tabasco, C.P. 86017", "addr:street": "Calle Zacatenco S/N", "addr:city": "Villahermosa", "addr:state": "Tabasco", "phones": {"Store": ["99 3353 7016"]}, "email": {"Customer Service": []}, "website": "https://www.farmaciasunion.com/sucursales.html", "operatingHours": {"Store": []}, "chain_id": "22318", "chain_name": "FARMACIAS DE DESCUENTO UNIÓN"}, "geometry": {"type": "Point", "coordinates": [-92.905565, 18.025818]}},
{"type": "Feature", "id": "VfnMcRmlWrP_r6ao2cd7Xxi_5t4=", "properties": {"ref": "8aceb3ce469a4d018be3f604009413c7", "@spider": "farmacias_de_descuento_unión_mex_dpa", "addr:full": "Malecon Leandro Rovirosa 411, Col. Las Gaviotas, Villahermosa, Centro, Tabasco, C.P. 86090", "addr:street": "Malecon Leandro Rovirosa 411", "addr:city": "Villahermosa", "addr:state": "Tabasco", "phones": {"Store": ["99 3688 0238"]}, "email": {"Customer Service": []}, "website": "https://www.farmaciasunion.com/sucursales.html", "operatingHours": {"Store": []}, "chain_id": "22318", "chain_name": "FARMACIAS DE DESCUENTO UNIÓN"}, "geometry": {"type": "Point", "coordinates": [-92.912682, 17.992427]}},
{"type": "Feature", "id": "NY-AeQpZ8cgqwu2mfEaKeEcBisU=", "properties": {"ref": "48f0109dfd9b407485759ca274dda082", "@spider": "farmacias_de_descuento_unión_mex_dpa", "addr:full": "Bastar Zozaya 229, Col. Centro, Villahermosa, Centro, Tabasco, C.P. 86000", "addr:street": "Bastar Zozaya 229", "addr:city": "Villahermosa", "addr:state": "Tabasco", "phones": {"Store": ["99 3131 2824"]}, "email": {"Customer Service": []}, "website": "https://www.farmaciasunion.com/sucursales.html", "operatingHours": {"Store": []}, "chain_id": "22318", "chain_name": "FARMACIAS DE DESCUENTO UNIÓN"}, "geometry": {"type": "Point", "coordinates": [-92.915165, 17.996204]}},
{"type": "Feature", "id": "wJ1pGIc3CIbkXzgluxx1n6P8agE=", "properties": {"ref": "c9a2190b125749d1a39851a57271aca0", "@spider": "farmacias_de_descuento_unión_mex_dpa", "addr:full": "Nueva Imagen 303, Col. Fracc. Bonanzas, Villahermosa, Centro, Tabasco, C.P. 86030", "addr:street": "Nueva Imagen 303", "addr:city": "Villahermosa", "addr:state": "Tabasco", "phones": {"Store": ["99 3315 5276"]}, "email": {"Customer Service": []}, "website": "https://www.farmaciasunion.com/sucursales.html", "operatingHours": {"Store": []}, "chain_id": "22318", "chain_name": "FARMACIAS DE DESCUENTO UNIÓN"}, "geometry": {"type": "Point", "coordinates": [-92.939432, 18.005153]}},
{"type": "Feature", "id": "g2gDbQcqhxYqvS5BXqW1Zil-sB4=", "properties": {"ref": "680d66ba20504624bd9173967f7cea44", "@spider": "farmacias_de_descuento_unión_mex_dpa", "addr:full": "Lino Merino 401, Col. Centro, Villahermosa, Centro, Tabasco, C.P. 86000", "addr:street": "Lino Merino 401", "addr:city": "Villahermosa", "addr:state": "Tabasco", "phones": {"Store": ["99 3131 2062"]}, "email": {"Customer Service": []}, "website": "https://www.farmaciasunion.com/sucursales.html", "operatingHours": {"Store": []}, "chain_id": "22318", "chain_name": "FARMACIAS DE DESCUENTO UNIÓN"}, "geometry": {"type": "Point", "coordinates": [-92.916683, 17.9944]}},
{"type": "Feature", "id": "hlI2lDEKb-HZ0qXej1bALSmg9tU=", "properties": {"ref": "df85a11ab7564f67838de0b74bcad8ae", "@spider": "farmacias_de_descuento_unión_mex_dpa", "addr:full": "Sanchez Magallanes 2A y 3A, Col. Gaviotas, Villahermosa, Centro, Tabasco, C.P. 86090", "addr:street": "Sanchez Magallanes 2A y 3A", "addr:city": "Villahermosa", "addr:state": "Tabasco", "phones": {"Store": ["99 3688 0237"]}, "email": {"Customer Service": []}, "website": "https://www.farmaciasunion.com/sucursales.html", "operatingHours": {"Store": []}, "chain_id": "22318", "chain_name": "FARMACIAS DE DESCUENTO UNIÓN"}, "geometry": {"type": "Point", "coordinates": [-92.916982, 17.985624]}},
{"type": "Feature", "id": "zdm7O5c61fHK0xtaxqsSamSBuXA=", "properties": {"ref": "e3ac33d5ce4e4d69a37edf95927ef02e", "@spider": "farmacias_de_descuento_unión_mex_dpa", "addr:full": "Francisco I. Madero 1112 Local 101, Col. Centro, Villahermosa, Centro, Tabasco, C.P. 86000", "addr:street": "Francisco I. Madero 1112 Local 101", "addr:city": "Villahermosa", "addr:state": "Tabasco", "phones": {"Store": ["99 3131 1803"]}, "email": {"Customer Service": []}, "website": "https://www.farmaciasunion.com/sucursales.html", "operatingHours": {"Store": []}, "chain_id": "22318", "chain_name": "FARMACIAS DE DESCUENTO UNIÓN"}, "geometry": {"type": "Point", "coordinates": [-92.915543, 17.996838]}},
{"type": "Feature", "id": "tdc283EFfuXsh9M5x44jiDPjKHs=", "properties": {"ref": "67e6685b67e44bebaa04897bd15e8969", "@spider": "farmacias_de_descuento_unión_mex_dpa", "addr:full": "Av .Ramon Mendoza Herrera 144, Col. José María Pino Suárez, Villahermosa, Centro, Tabasco, C.P. 86029", "addr:street": "Av .Ramon Mendoza Herrera 144", "addr:city": "Villahermosa", "addr:state": "Tabasco", "phones": {"Store": ["99 3357 0201"]}, "email": {"Customer Service": []}, "website": "https://www.farmaciasunion.com/sucursales.html", "operatingHours": {"Store": []}, "chain_id": "22318", "chain_name": "FARMACIAS DE DESCUENTO UNIÓN"}, "geometry": {"type": "Point", "coordinates": [-92.920587, 18.016212]}}]}